{"type": "FeatureCollection", "features": [{"type": "Feature", "id": 0, "properties": {"id": 0, "name": "Bellandur Lake"}, "geometry": {"type": "MultiPolygon", "coordinates": [[[[77.6475906, 12.9315831], [77.6478374, 12.9305923], [77.6479205, 12.9294603], [77.6477435, 12.9283937], [77.647647, 12.9283435], [77.6468912, 12.92866], [77.6465525, 12.9286326], [77.6453046, 12.9293911], [77.6445832, 12.9287131], [77.643531, 12.9287691], [77.6432587, 12.9289217], [77.6430676, 12.9294073], [77.6438007, 12.9305479], [77.6442057, 12.9309635], [77.6445007, 12.9311282], [77.6462656, 12.9316746], [77.6473, 12.9321627], [77.6475906, 12.9315831]]], [[[77.6485777, 12.9327438], [77.6507637, 12.9331751], [77.6515528, 12.9334265], [77.6529963, 12.9335654], [77.6535347, 12.933838], [77.6529784, 12.933233], [77.6530357, 12.9330515], [77.6533866, 12.9326118], [77.653401, 12.9325141], [77.6531312, 12.9323186], [77.6531216, 12.9322255], [77.6535156, 12.9313553], [77.653506, 12.9312413], [77.6526895, 12.9310179], [77.6526967, 12.9307736], [77.6527755, 12.9307154], [77.6537137, 12.9310133], [77.6540742, 12.9296172], [77.6539501, 12.9295328], [77.6534889, 12.9295296], [77.6529487, 12.92971], [77.6520238, 12.9294638], [77.6516322, 12.9292526], [77.6514875, 12.9290813], [77.6513484, 12.9288473], [77.6513215, 12.9283819], [77.6507728, 12.9278665], [77.6496973, 12.9279437], [77.6487667, 12.9278714], [77.6482588, 12.9279607], [77.6478339, 12.9282494], [77.6480171, 12.9294525], [77.6479903, 12.9299936], [77.6477033, 12.9315752], [77.647465, 12.9322357], [77.6485777, 12.9327438]]], [[[77.6565452, 12.9355587], [77.6579751, 12.9364128], [77.6580854, 12.9359901], [77.6580794, 12.9354708], [77.6582345, 12.9349031], [77.6587017, 12.9342888], [77.6587752, 12.9336203], [77.6591947, 12.9328084], [77.6593339, 12.9326282], [77.6597474, 12.9324267], [77.6599622, 12.9321225], [77.6602186, 12.9314191], [77.6604274, 12.9310955], [77.660495, 12.9304037], [77.6606072, 12.9301456], [77.6601339, 12.9298447], [77.6590176, 12.9296384], [77.6583242, 12.9296951], [77.6577938, 12.9295278], [77.6560515, 12.9294994], [77.6556446, 12.929261], [77.6550529, 12.9291078], [77.6545674, 12.9294476], [77.6541578, 12.9295629], [77.6541618, 12.9298264], [77.6538556, 12.9308825], [77.6532254, 12.9322176], [77.6535017, 12.9325392], [77.653122, 12.9330701], [77.6530982, 12.9332814], [77.653635, 12.9337503], [77.6536797, 12.9339644], [77.6547497, 12.9346521], [77.6565452, 12.9355587]]], [[[77.6580432, 12.9364006], [77.6613235, 12.9381916], [77.6618982, 12.938791], [77.6619888, 12.9393656], [77.6606877, 12.9418263], [77.6605995, 12.94247], [77.6601246, 12.9428212], [77.6599395, 12.9439661], [77.6600656, 12.9441674], [77.6608273, 12.9445674], [77.6614925, 12.9445439], [77.6618868, 12.9443922], [77.6621336, 12.943446], [77.6621436, 12.9430944], [77.6622771, 12.9429216], [77.6637214, 12.9427062], [77.6648533, 12.9423062], [77.6654997, 12.9418305], [77.6656178, 12.9413834], [77.6657465, 12.941271], [77.6666236, 12.9410384], [77.6680155, 12.9401129], [77.6679499, 12.939831], [77.6670225, 12.9388909], [77.666895, 12.9386394], [77.6667688, 12.9382524], [77.6667903, 12.9371488], [77.6665036, 12.9361709], [77.6665137, 12.9356666], [77.6667803, 12.9345127], [77.6668964, 12.9335166], [77.6669838, 12.9322411], [77.6669367, 12.9314523], [77.6667629, 12.9310008], [77.6658993, 12.9310076], [77.6653074, 12.9281455], [77.6639338, 12.9281201], [77.6635853, 12.9285144], [77.6629189, 12.9290026], [77.6623709, 12.9292998], [77.6614818, 12.9296187], [77.6607364, 12.9301731], [77.6605984, 12.9304095], [77.6605049, 12.9311517], [77.6599323, 12.9323841], [77.6597892, 12.9325275], [77.6593975, 12.9326902], [77.6590794, 12.9331495], [77.6588289, 12.9337657], [77.6588051, 12.9342482], [77.658306, 12.9349418], [77.658143, 12.9355406], [77.6581728, 12.9358002], [77.6580432, 12.9364006]]], [[[77.6669996, 12.9314364], [77.6670541, 12.9320847], [77.6666699, 12.9361388], [77.6669064, 12.9371921], [77.6669537, 12.9376461], [77.6669007, 12.937797], [77.6670627, 12.938726], [77.668046, 12.9398087], [77.6683285, 12.9399021], [77.6690966, 12.939402], [77.670352, 12.9397742], [77.6707274, 12.9399562], [77.6714049, 12.9407163], [77.672217, 12.9412781], [77.6731674, 12.9421016], [77.6740801, 12.9425493], [77.6743644, 12.9424761], [77.6747423, 12.941956], [77.6748359, 12.9416211], [77.6751021, 12.9413364], [77.6759738, 12.9409861], [77.6775348, 12.9410384], [77.6788974, 12.9423436], [77.6795009, 12.9432133], [77.6797047, 12.9432551], [77.6799066, 12.9431825], [77.6797723, 12.942843], [77.6794569, 12.9425232], [77.6793776, 12.9420449], [77.6786556, 12.9407468], [77.6785396, 12.9402468], [77.6780337, 12.9392237], [77.6777362, 12.9389841], [77.6772901, 12.938091], [77.6770116, 12.936521], [77.6765711, 12.9358855], [77.6765157, 12.9356929], [77.676494, 12.9352839], [77.676717, 12.934501], [77.6769038, 12.9332424], [77.6767356, 12.9327422], [77.6768262, 12.9323849], [77.6767356, 12.9319604], [77.6771237, 12.9313845], [77.6768995, 12.9310861], [77.676787, 12.9312317], [77.676669, 12.931848], [77.676426, 12.9320786], [77.6757074, 12.9322023], [77.6754, 12.9321091], [77.6740711, 12.9314035], [77.6732643, 12.9312422], [77.6729762, 12.9309627], [77.6728457, 12.9309484], [77.6701429, 12.9310546], [77.6669636, 12.9309991], [77.6668964, 12.9311347], [77.6669996, 12.9314364]]]]}}, {"type": "Feature", "id": 1, "properties": {"id": 1, "name": "Varthur Lake"}, "geometry": {"type": "MultiPolygon", "coordinates": [[[[77.7252121, 12.9435084], [77.7227221, 12.94339], [77.7225016, 12.9434534], [77.722421, 12.9444117], [77.7230186, 12.9444507], [77.723286, 12.9445781], [77.7235522, 12.9449428], [77.7238045, 12.9456016], [77.7241673, 12.9458741], [77.7243101, 12.9458592], [77.7247941, 12.94546], [77.7251531, 12.9449832], [77.7253193, 12.9444136], [77.7252121, 12.9435084]]], [[[77.7277483, 12.947121], [77.7282888, 12.9436266], [77.727038, 12.9434118], [77.7270463, 12.9449103], [77.7265784, 12.9460266], [77.7265568, 12.9458556], [77.726985, 12.9448737], [77.7269067, 12.9433397], [77.7261088, 12.9432491], [77.7258474, 12.9432947], [77.7259824, 12.9446392], [77.7254898, 12.9456555], [77.7254155, 12.9456099], [77.72589, 12.9445877], [77.7257011, 12.9433555], [77.7252836, 12.943457], [77.7253932, 12.9439295], [77.7253918, 12.9444062], [77.7252435, 12.9449653], [77.7247933, 12.9455703], [77.7243778, 12.94588], [77.7243823, 12.9460248], [77.7250314, 12.9463083], [77.7253004, 12.9463385], [77.7253946, 12.9463295], [77.7253698, 12.945949], [77.7255521, 12.9462537], [77.7262932, 12.9451742], [77.7264682, 12.9438873], [77.7265182, 12.9439146], [77.7263737, 12.9452554], [77.7256, 12.9463449], [77.7264749, 12.9467346], [77.726631, 12.9467248], [77.7273225, 12.9455777], [77.727564, 12.944242], [77.7276333, 12.9442321], [77.7274438, 12.9455793], [77.7267054, 12.9467961], [77.7277483, 12.947121]]], [[[77.7304628, 12.9432094], [77.7303839, 12.9430196], [77.7297416, 12.9432668], [77.7292305, 12.9476634], [77.7294625, 12.9473391], [77.7293324, 12.9476797], [77.7298062, 12.9477766], [77.7298856, 12.9476775], [77.7304628, 12.9432094]]], [[[77.729638, 12.9433024], [77.7286941, 12.9436208], [77.728406, 12.9436455], [77.7283752, 12.943709], [77.7278654, 12.9470515], [77.7278771, 12.947165], [77.7285256, 12.9476191], [77.7291093, 12.9477001], [77.7291455, 12.9475808], [77.729638, 12.9433024]]], [[[77.7305095, 12.9430246], [77.7299128, 12.9478067], [77.7300456, 12.9479056], [77.7307913, 12.9480998], [77.731101, 12.9481417], [77.7314097, 12.9479918], [77.7323681, 12.9481495], [77.7328998, 12.9484222], [77.7333322, 12.9492014], [77.733444, 12.9492794], [77.7342658, 12.949511], [77.734918, 12.949487], [77.7350789, 12.9495549], [77.7357256, 12.9501552], [77.7367223, 12.9507375], [77.7374627, 12.9510573], [77.7376133, 12.9510212], [77.7376408, 12.9514542], [77.737722, 12.9516193], [77.7382472, 12.9520437], [77.7384514, 12.9519957], [77.7385857, 12.9521397], [77.7392597, 12.9520378], [77.7395546, 12.9520899], [77.739579, 12.9522615], [77.7399558, 12.9525792], [77.7405568, 12.9527221], [77.7426225, 12.9534466], [77.7431602, 12.9537218], [77.7434738, 12.9539837], [77.7439463, 12.9551697], [77.7441396, 12.955507], [77.7442361, 12.9555368], [77.7441972, 12.9549873], [77.7440077, 12.9543743], [77.7441631, 12.9541933], [77.7441742, 12.9539516], [77.743949, 12.9534498], [77.7439463, 12.9532642], [77.7445316, 12.9517591], [77.7448536, 12.9503236], [77.7450997, 12.9497275], [77.7452056, 12.9491804], [77.7455985, 12.948755], [77.746199, 12.9471657], [77.7462519, 12.9466268], [77.7465857, 12.9463305], [77.7468639, 12.9457687], [77.7465386, 12.9455927], [77.7461973, 12.9456174], [77.7456162, 12.9458991], [77.7444988, 12.9458979], [77.7440107, 12.945715], [77.7425436, 12.9456653], [77.742388, 12.9457594], [77.7422967, 12.9461228], [77.7421305, 12.946277], [77.7401376, 12.9447399], [77.739577, 12.944549], [77.7388501, 12.944523], [77.7379918, 12.9442119], [77.7372783, 12.9442276], [77.7367902, 12.9444158], [77.7364683, 12.9442955], [77.7359909, 12.9439139], [77.7354062, 12.9437413], [77.7344459, 12.9427741], [77.7340114, 12.9420265], [77.7339432, 12.9412009], [77.7325738, 12.9412549], [77.7324017, 12.9413521], [77.7323726, 12.9418662], [77.7322902, 12.9420182], [77.731652, 12.9426265], [77.7305504, 12.9429484], [77.7305095, 12.9430246]]]]}}, {"type": "Feature", "id": 2, "properties": {"id": 2, "name": "Madiwala Lake"}, "geometry": {"type": "MultiPolygon", "coordinates": [[[[77.6115283, 12.9026202], [77.6122751, 12.9019729], [77.6131626, 12.9016011], [77.6144147, 12.9015195], [77.6163134, 12.9017352], [77.6163429, 12.9016803], [77.6155236, 12.9011079], [77.614118, 12.8994854], [77.6139222, 12.8993886], [77.6131672, 12.8994971], [77.612907, 12.8982461], [77.6126495, 12.8981128], [77.6122941, 12.8980853], [77.6120836, 12.8981938], [77.6124883, 12.8996064], [77.612462, 12.8999449], [77.6123488, 12.9000219], [77.6118621, 12.9000783], [77.6118068, 12.900168], [77.6119252, 12.9020172], [77.61187, 12.9021429], [77.6114227, 12.9023634], [77.611405, 12.9024541], [77.6115283, 12.9026202]]], [[[77.6211762, 12.9121302], [77.6210073, 12.9110844], [77.6207423, 12.9107067], [77.6205414, 12.9100829], [77.6204558, 12.9093467], [77.6206961, 12.9079811], [77.6202911, 12.9076439], [77.6201785, 12.9072674], [77.6187971, 12.9057771], [77.6182178, 12.9035365], [77.6183277, 12.9027862], [77.6176035, 12.902862], [77.6174399, 12.9027339], [77.6172736, 12.9023391], [77.6171181, 12.9021718], [77.6160398, 12.9018319], [77.6151305, 12.9016855], [77.6137059, 12.9016465], [77.6131924, 12.9017155], [77.6123143, 12.90206], [77.611649, 12.9027627], [77.6116839, 12.9028149], [77.6126629, 12.9026659], [77.612687, 12.9027731], [77.611177, 12.9030293], [77.611421, 12.9044189], [77.6127005, 12.9043039], [77.6133925, 12.9061013], [77.613776, 12.9064412], [77.6140255, 12.9068412], [77.614291, 12.9075419], [77.6144841, 12.9077171], [77.6147389, 12.9081798], [77.6153022, 12.9084883], [77.6158118, 12.9105249], [77.6166272, 12.9147812], [77.6167747, 12.9147655], [77.6173568, 12.9140674], [77.6188427, 12.912572], [77.6197761, 12.9122897], [77.6209389, 12.9124374], [77.6211762, 12.9121302]]]]}}, {"type": "Feature", "id": 3, "properties": {"id": 3, "name": "Sarjapur Doddakere Lake"}, "geometry": {"type": "Polygon", "coordinates": [[[77.7761223, 12.8756065], [77.774129, 12.8755408], [77.7736813, 12.8744488], [77.7742553, 12.8735964], [77.7755963, 12.8730368], [77.7754408, 12.8726603], [77.7759236, 12.8724406], [77.7758324, 12.8722628], [77.7782142, 12.8704639], [77.7784717, 12.8698363], [77.7791905, 12.869648], [77.7800456, 12.8691483], [77.7814865, 12.8685184], [77.7831709, 12.8686335], [77.7847052, 12.8686073], [77.7858531, 12.8678699], [77.7859604, 12.868759], [77.7853382, 12.8690414], [77.7855849, 12.8701605], [77.7859712, 12.8746789], [77.7864811, 12.8758643], [77.7857644, 12.8758021], [77.7853634, 12.8755999], [77.785027, 12.8756043], [77.7837637, 12.8759915], [77.7824873, 12.8761076], [77.780997, 12.8757117], [77.7811633, 12.8754568], [77.7805514, 12.8751011], [77.779482, 12.8750382], [77.7773987, 12.8753977], [77.7768871, 12.8754201], [77.7761223, 12.8756065]]]}}, {"type": "Feature", "id": 4, "properties": {"id": 4, "name": "Begur Lake"}, "geometry": {"type": "MultiPolygon", "coordinates": [[[[77.6297786, 12.8707744], [77.6308498, 12.8707522], [77.6317022, 12.8709033], [77.6316931, 12.8705656], [77.6318663, 12.8698679], [77.6315609, 12.8693524], [77.6312965, 12.8683571], [77.6306948, 12.8684059], [77.6305946, 12.868477], [77.6305353, 12.8687126], [77.6297448, 12.8687166], [77.629632, 12.8687983], [77.6294741, 12.8693576], [77.6292227, 12.8698163], [77.6289217, 12.8710322], [77.6297786, 12.8707744]]], [[[77.6275177, 12.8770698], [77.6277389, 12.8775976], [77.6280716, 12.8777131], [77.6294345, 12.8779042], [77.6295845, 12.8778295], [77.6297217, 12.8779409], [77.6305055, 12.8780565], [77.6310595, 12.878002], [77.6312259, 12.8781708], [77.6318617, 12.8783374], [77.632427, 12.8783147], [77.6326199, 12.8782184], [77.6325586, 12.8781304], [77.6327417, 12.8778149], [77.6326811, 12.8761226], [77.6327295, 12.8757581], [77.6332224, 12.8748248], [77.633309, 12.8741672], [77.6330081, 12.8733451], [77.632721, 12.8728074], [77.6323745, 12.8724208], [77.6321722, 12.8723997], [77.6317182, 12.8710281], [77.6307537, 12.8708407], [77.6297867, 12.8708658], [77.6288649, 12.8712177], [77.6286522, 12.8715257], [77.6284558, 12.8728329], [77.6285286, 12.8740385], [77.6284727, 12.8751981], [77.6282083, 12.8758868], [77.6275177, 12.8770698]]]]}}, {"type": "Feature", "id": 5, "properties": {"id": 5, "name": "Hulimavu Lake"}, "geometry": {"type": "Polygon", "coordinates": [[[77.6073761, 12.8715782], [77.606953, 12.8705517], [77.6056281, 12.8687369], [77.605038, 12.867668], [77.6050603, 12.8672227], [77.6045258, 12.8651295], [77.6043452, 12.8658107], [77.6041603, 12.8660343], [77.6033206, 12.8660307], [77.6030968, 12.8661282], [77.6029354, 12.8664685], [77.6026724, 12.866737], [77.6016812, 12.8669649], [77.6017012, 12.867162], [77.6009591, 12.8671408], [77.6023687, 12.8718571], [77.6027305, 12.8734993], [77.6028836, 12.8745153], [77.602867, 12.8750168], [77.6032353, 12.8750556], [77.6036173, 12.8742414], [77.6041161, 12.8739069], [77.6057906, 12.8734665], [77.6069664, 12.8733863], [77.6075542, 12.8736268], [77.6082961, 12.8742103], [77.6084765, 12.8741919], [77.608543, 12.8740579], [77.608436, 12.8738673], [77.6076611, 12.873128], [77.6074473, 12.8726648], [77.6073226, 12.8720681], [77.6073761, 12.8715782]]]}}, {"type": "Feature", "id": 6, "properties": {"id": 6, "name": "Halasuru lake"}, "geometry": {"type": "Polygon", "coordinates": [[[77.6224557, 12.9821075], [77.6227025, 12.9819297], [77.6227025, 12.98159], [77.6213479, 12.9804766], [77.6210522, 12.9803629], [77.6208222, 12.9799747], [77.6205895, 12.9798984], [77.6204011, 12.9797003], [77.6202348, 12.9786861], [77.620318, 12.9783595], [77.6200604, 12.9777949], [77.620046, 12.9774617], [77.6198673, 12.9774395], [77.6192996, 12.9785918], [77.6180018, 12.9805129], [77.6174572, 12.9809161], [77.6163912, 12.9811613], [77.6158547, 12.9817677], [77.6159766, 12.9825087], [77.6160934, 12.9827667], [77.616992, 12.9832941], [77.6175499, 12.9837541], [77.6192451, 12.985615], [77.6196869, 12.9862729], [77.6197741, 12.9863499], [77.6203682, 12.9861434], [77.6204527, 12.9861944], [77.6202087, 12.9863185], [77.620342, 12.9866416], [77.6200091, 12.9868134], [77.6202536, 12.9871831], [77.6217107, 12.98736], [77.6221546, 12.9875051], [77.6221499, 12.9867222], [77.6220131, 12.9857613], [77.6219702, 12.9857195], [77.6212835, 12.9859286], [77.6211682, 12.9860227], [77.6210931, 12.9859887], [77.6211012, 12.9859025], [77.621997, 12.9856228], [77.6219112, 12.9836822], [77.621997, 12.9836835], [77.6224557, 12.9821075]]]}}, {"type": "Feature", "id": 7, "properties": {"id": 7, "name": "Doddanekundi Lake"}, "geometry": {"type": "Polygon", "coordinates": [[[77.6872217, 12.9789946], [77.688497, 12.9783059], [77.6890177, 12.9775882], [77.6891222, 12.9772935], [77.6893352, 12.9770954], [77.6903926, 12.9762721], [77.6913375, 12.975873], [77.6916205, 12.9754865], [77.6917077, 12.9751127], [77.6916905, 12.9747199], [77.6912282, 12.9724847], [77.6907058, 12.9724708], [77.6904312, 12.972718], [77.6902032, 12.9728095], [77.6892304, 12.9728105], [77.6875851, 12.9719916], [77.6871211, 12.9716735], [77.6869685, 12.9717038], [77.6867633, 12.9718178], [77.6869264, 12.9723518], [77.6870165, 12.9732355], [77.6869528, 12.9733314], [77.6860388, 12.9739478], [77.6859285, 12.9741268], [77.6859088, 12.9744629], [77.6856621, 12.9748628], [77.6847661, 12.9753367], [77.6844972, 12.9755596], [77.68437, 12.9759154], [77.6840185, 12.9761306], [77.6842327, 12.9764935], [77.6844666, 12.9766727], [77.684829, 12.977495], [77.6856171, 12.9780521], [77.6861849, 12.9783333], [77.6870647, 12.9789998], [77.6872217, 12.9789946]]]}}, {"type": "Feature", "id": 8, "properties": {"id": 8, "name": "Agara Lake"}, "geometry": {"type": "Polygon", "coordinates": [[[77.6396728, 12.9184726], [77.6396137, 12.9183942], [77.6397371, 12.918321], [77.6409334, 12.9179759], [77.6399832, 12.9169965], [77.6391964, 12.9166149], [77.6389699, 12.9165856], [77.6389859, 12.9167073], [77.6388384, 12.9166939], [77.638722, 12.9169542], [77.6389056, 12.9187157], [77.6394823, 12.9184726], [77.6395196, 12.9185529], [77.638911, 12.91887], [77.6390244, 12.9202523], [77.6393489, 12.9214365], [77.6397781, 12.9221659], [77.6403066, 12.9233599], [77.6413366, 12.9230775], [77.6444586, 12.9238697], [77.6446249, 12.92382], [77.6451506, 12.9228525], [77.644118, 12.9218358], [77.6410246, 12.9180177], [77.6396728, 12.9184726]]]}}, {"type": "Feature", "id": 9, "properties": {"id": 9, "name": "Rayasandra Lake"}, "geometry": {"type": "Polygon", "coordinates": [[[77.6733717, 12.8675826], [77.6733824, 12.8678287], [77.6739188, 12.8689374], [77.6756333, 12.8707824], [77.6765367, 12.8715522], [77.6771589, 12.8724726], [77.6787254, 12.8737068], [77.679088, 12.8736691], [77.6788326, 12.8728073], [77.6793262, 12.8713221], [77.6799892, 12.8704268], [77.6806351, 12.8702134], [77.6806115, 12.8696946], [77.6797489, 12.869135], [77.6795304, 12.8690858], [77.6791897, 12.8685655], [77.6785004, 12.8685629], [77.67688, 12.8675567], [77.6745197, 12.8672639], [77.6742411, 12.8675875], [77.673718, 12.8674306], [77.6735303, 12.8671508], [77.6733717, 12.8675826]]]}}, {"type": "Feature", "id": 10, "properties": {"id": 10, "name": "Gattahalli Lake"}, "geometry": {"type": "Polygon", "coordinates": [[[77.6869574, 12.8768282], [77.6867482, 12.8765798], [77.6870459, 12.8760386], [77.6869735, 12.875785], [77.6868179, 12.8755915], [77.6869172, 12.8750685], [77.6871344, 12.8751809], [77.687577, 12.8752437], [77.689881, 12.875228], [77.6930004, 12.8741664], [77.6940733, 12.8739651], [77.6949182, 12.8736435], [77.6950523, 12.8737428], [77.6950121, 12.8746266], [77.6951301, 12.8759209], [77.695342, 12.8764177], [77.6958214, 12.8769962], [77.6947318, 12.8772806], [77.6946594, 12.8771577], [77.6946902, 12.8767877], [77.6945816, 12.8768152], [77.6944703, 12.877023], [77.6940666, 12.8768348], [77.6938909, 12.8770178], [77.6933143, 12.8771316], [77.6930045, 12.8770217], [77.6928087, 12.8771825], [77.6923245, 12.8772113], [77.6920214, 12.8773538], [77.6906615, 12.877644], [77.690219, 12.8774976], [77.6892802, 12.8774375], [77.6869574, 12.8768282]]]}}, {"type": "Feature", "id": 11, "properties": {"id": 11, "name": "Halanayakanahalli Lake"}, "geometry": {"type": "Polygon", "coordinates": [[[77.6934242, 12.8993507], [77.6933365, 12.9014511], [77.693544, 12.9025759], [77.6931638, 12.9024557], [77.6929145, 12.9017967], [77.6922566, 12.9013889], [77.6914787, 12.9012947], [77.6905802, 12.9013313], [77.6898114, 12.90123], [77.6885122, 12.901647], [77.6885498, 12.9015013], [77.6891345, 12.9010543], [77.6897818, 12.900271], [77.6902431, 12.899539], [77.6905543, 12.8982526], [77.6904362, 12.8973323], [77.6904309, 12.8959048], [77.690329, 12.8956067], [77.6904041, 12.8954132], [77.690919, 12.8957008], [77.6910853, 12.8958786], [77.6912463, 12.8962447], [77.6916164, 12.8964277], [77.692346, 12.8964068], [77.6938856, 12.895795], [77.6942182, 12.8957845], [77.6946527, 12.8972748], [77.6945293, 12.8974735], [77.694084, 12.897782], [77.6938266, 12.8982056], [77.6936388, 12.8990893], [77.6934242, 12.8993507]]]}}, {"type": "Feature", "id": 12, "properties": {"id": 12, "name": "Sarakki Kere"}, "geometry": {"type": "MultiPolygon", "coordinates": [[[[77.5793192, 12.9017806], [77.5812596, 12.9016463], [77.5812712, 12.9015884], [77.581147, 12.9014672], [77.5812194, 12.9013365], [77.5811362, 12.9011783], [77.581332, 12.9010528], [77.5815908, 12.8990723], [77.5814694, 12.8985712], [77.5805196, 12.8979328], [77.5784656, 12.8970934], [77.5747983, 12.8949009], [77.574711, 12.8949348], [77.5746617, 12.8951561], [77.5760509, 12.8966154], [77.5769394, 12.8978694], [77.5774664, 12.8988558], [77.5779693, 12.9003155], [77.5788003, 12.9012524], [77.5793192, 12.9017806]]], [[[77.5781375, 12.9018319], [77.5786498, 12.9018371], [77.5788765, 12.9017443], [77.579028, 12.9017888], [77.5790661, 12.9017248], [77.5779816, 12.9005168], [77.5780061, 12.9017299], [77.5781375, 12.9018319]]]]}}, {"type": "Feature", "id": 13, "properties": {"id": 13, "name": "Gunjuru Lake"}, "geometry": {"type": "Polygon", "coordinates": [[[77.7376378, 12.9184151], [77.7387321, 12.9183576], [77.7396571, 12.918431], [77.7411685, 12.9191977], [77.741612, 12.9196208], [77.7417446, 12.9196578], [77.7418584, 12.9195831], [77.7419716, 12.9191556], [77.7421904, 12.91874], [77.7430022, 12.9179916], [77.7431027, 12.9176593], [77.7431846, 12.9176151], [77.7437156, 12.9177354], [77.7439861, 12.9175896], [77.7437371, 12.9172648], [77.7422672, 12.9166112], [77.7416171, 12.9160629], [77.7413875, 12.9156177], [77.7409148, 12.9157016], [77.7406654, 12.9156026], [77.7405024, 12.915074], [77.7405453, 12.9147132], [77.7407223, 12.9145694], [77.7406928, 12.9143759], [77.7406257, 12.9142897], [77.7395314, 12.9140047], [77.7394482, 12.9140282], [77.7374366, 12.9176465], [77.7373937, 12.917772], [77.7375653, 12.9179602], [77.7374902, 12.9182687], [77.7376378, 12.9184151]]]}}, {"type": "Feature", "id": 14, "properties": {"id": 14, "name": "Chikka Bellanduru Lake"}, "geometry": {"type": "Polygon", "coordinates": [[[77.7181058, 12.9156379], [77.7185404, 12.9158321], [77.7206002, 12.9153676], [77.7216008, 12.9155994], [77.7218769, 12.9155546], [77.7200559, 12.9105511], [77.7195102, 12.9098293], [77.7193643, 12.9089927], [77.7187034, 12.9097958], [77.7179094, 12.9111657], [77.7174996, 12.9121508], [77.7180682, 12.9141608], [77.7181058, 12.9156379]]]}}, {"type": "Feature", "id": 15, "properties": {"id": 15, "name": "Kaikondrahalli Lake"}, "geometry": {"type": "Polygon", "coordinates": [[[77.6735422, 12.9153502], [77.6734973, 12.9158468], [77.673659, 12.915879], [77.6738192, 12.9155637], [77.6739033, 12.9155892], [77.6746173, 12.9150325], [77.6758939, 12.9143088], [77.6758158, 12.914035], [77.6753485, 12.9135335], [77.6745183, 12.9131154], [77.6739354, 12.9123164], [77.6718238, 12.9106267], [77.6716802, 12.9105546], [77.6704401, 12.910522], [77.6696258, 12.9113367], [77.6700132, 12.911685], [77.67024, 12.9121246], [77.6714902, 12.9134499], [77.6717028, 12.9136443], [77.6722337, 12.9138775], [77.6733439, 12.9148729], [77.6735422, 12.9153502]]]}}, {"type": "Feature", "id": 16, "properties": {"id": 16, "name": "Saul Kere"}, "geometry": {"type": "Polygon", "coordinates": [[[77.677451, 12.9206973], [77.6783001, 12.9204112], [77.6789826, 12.9203478], [77.6805752, 12.9199149], [77.6809092, 12.9198653], [77.6821668, 12.9199463], [77.6822662, 12.9198909], [77.6826011, 12.9195189], [77.6821625, 12.9179933], [77.6817831, 12.917407], [77.6817181, 12.916615], [77.6808352, 12.9160448], [77.6794972, 12.9159551], [77.6793761, 12.9163325], [77.6794155, 12.9165894], [77.6795764, 12.9168561], [77.6796326, 12.9172539], [77.6785143, 12.9183667], [77.6785652, 12.9189397], [77.6778953, 12.9189583], [77.6778234, 12.9195822], [77.6772891, 12.9205322], [77.677451, 12.9206973]]]}}, {"type": "Feature", "id": 17, "properties": {"id": 17, "name": "Kodigehalli Lake"}, "geometry": {"type": "MultiPolygon", "coordinates": [[[[77.7266917, 12.9977456], [77.7261613, 12.9976033], [77.7259274, 12.997659], [77.7245843, 12.998453], [77.7252643, 12.998837], [77.7258645, 12.9989479], [77.7266917, 12.9977456]]], [[[77.7300391, 12.9990538], [77.7305245, 12.999553], [77.7308384, 12.9995922], [77.7307713, 12.9991505], [77.7303636, 12.9990277], [77.7300391, 12.9990538]]], [[[77.7259467, 12.9989788], [77.7276805, 12.9999768], [77.7279294, 13.0003158], [77.7287326, 13.0008593], [77.7296224, 13.0021045], [77.7297209, 13.0030261], [77.7296616, 13.0032311], [77.7298708, 13.0030689], [77.7299529, 13.0028696], [77.7299377, 13.0024163], [77.7303344, 13.0014255], [77.7309091, 13.0004683], [77.7308838, 12.9997232], [77.7306077, 12.9996863], [77.7301249, 12.9994243], [77.7295853, 12.9984364], [77.729138, 12.9980202], [77.7287429, 12.9978918], [77.7277175, 12.9979246], [77.7267515, 12.9977808], [77.7259467, 12.9989788]]]]}}, {"type": "Feature", "id": 18, "properties": {"id": 18, "name": "Hosakere"}, "geometry": {"type": "Polygon", "coordinates": [[[77.6632643, 12.8841403], [77.6637149, 12.8854345], [77.6638222, 12.8865431], [77.6636922, 12.8870995], [77.6637293, 12.8872182], [77.663797, 12.887232], [77.6643382, 12.8865684], [77.6645354, 12.8864469], [77.6655251, 12.8861994], [77.6662949, 12.8862203], [77.6669294, 12.8865628], [77.6671663, 12.8868273], [77.6678041, 12.8879455], [77.6680168, 12.8880487], [77.6679325, 12.8879541], [77.6680011, 12.8878138], [77.6665554, 12.8857231], [77.6662416, 12.8846423], [77.6662004, 12.8834383], [77.6661048, 12.8833124], [77.6643325, 12.8830983], [77.6638625, 12.8829411], [77.6633614, 12.8826035], [77.662597, 12.8824984], [77.6626286, 12.8830369], [77.6629636, 12.8837425], [77.6632643, 12.8841403]]]}}, {"type": "Feature", "id": 19, "properties": {"id": 19, "name": "Gunjuru Palya Lake"}, "geometry": {"type": "Polygon", "coordinates": [[[77.7221239, 12.9208307], [77.7228749, 12.9205275], [77.7239585, 12.9204124], [77.7240765, 12.9200673], [77.7240159, 12.9194913], [77.7237069, 12.9191984], [77.7225854, 12.9185632], [77.7213383, 12.917668], [77.7204188, 12.9172331], [77.720153, 12.9172643], [77.7202828, 12.9169118], [77.7196471, 12.9167722], [77.7197731, 12.9170293], [77.7196705, 12.917222], [77.71997, 12.9172036], [77.7199893, 12.9172783], [77.7194562, 12.9174148], [77.7191412, 12.9185092], [77.7194738, 12.9192621], [77.7213728, 12.9205693], [77.7221239, 12.9208307]]]}}, {"type": "Feature", "id": 20, "properties": {"id": 20, "name": "Kasavanahalli Lake"}, "geometry": {"type": "Polygon", "coordinates": [[[77.6661221, 12.9075899], [77.6664964, 12.9075221], [77.6666056, 12.9061088], [77.6675712, 12.9056487], [77.6680218, 12.9057533], [77.6684081, 12.9060252], [77.669438, 12.9055232], [77.6698672, 12.905565], [77.6699752, 12.9051645], [77.66957, 12.9048167], [77.6690413, 12.9040295], [77.6683348, 12.9023623], [77.6679789, 12.902093], [77.6663758, 12.9028861], [77.6664324, 12.9033451], [77.6660987, 12.9040931], [77.6663347, 12.9052591], [77.6660764, 12.9057092], [77.6661221, 12.9075899]]]}}, {"type": "Feature", "id": 21, "properties": {"id": 21, "name": "Lalbagh Tank"}, "geometry": {"type": "Polygon", "coordinates": [[[77.5817593, 12.9462818], [77.5824275, 12.9461026], [77.5826277, 12.9458367], [77.5827053, 12.9458553], [77.5827638, 12.9457426], [77.5829802, 12.9456603], [77.5832769, 12.9457863], [77.5836483, 12.9463294], [77.5835584, 12.946466], [77.5833761, 12.9464395], [77.5830876, 12.9459886], [77.582893, 12.9459342], [77.5827609, 12.9460032], [77.5827541, 12.9461265], [77.5829921, 12.9464231], [77.5829636, 12.9465306], [77.5827024, 12.9464806], [77.5824301, 12.9462136], [77.5818559, 12.9463748], [77.5817625, 12.9464594], [77.5818477, 12.9469834], [77.5817865, 12.9474528], [77.5814469, 12.9478197], [77.5813791, 12.9480774], [77.581481, 12.94828], [77.5817475, 12.9482392], [77.5824189, 12.9477205], [77.5830472, 12.9473739], [77.5838415, 12.9471385], [77.5850113, 12.94722], [77.5854438, 12.9473304], [77.5859697, 12.9476402], [77.5862222, 12.9476091], [77.5865086, 12.947331], [77.5864684, 12.9471694], [77.5863585, 12.9471265], [77.5863101, 12.946701], [77.5864619, 12.9464912], [77.5865738, 12.9465454], [77.5866295, 12.9464854], [77.5864098, 12.9461927], [77.5860633, 12.9460476], [77.5857982, 12.9463189], [77.5854552, 12.9465073], [77.5853551, 12.9471087], [77.5852422, 12.9470959], [77.5852869, 12.9460272], [77.5850098, 12.9458672], [77.5848027, 12.9458489], [77.5847535, 12.9465305], [77.5849979, 12.9467484], [77.5848504, 12.9467252], [77.5847082, 12.946565], [77.5846736, 12.9461889], [77.5844833, 12.9457464], [77.5842591, 12.9454841], [77.5839072, 12.9452888], [77.5835092, 12.9446182], [77.5828545, 12.9440521], [77.5822443, 12.9439827], [77.5819171, 12.9442511], [77.5818804, 12.9442127], [77.5821066, 12.9439836], [77.581324, 12.9439428], [77.5812603, 12.9440957], [77.5813965, 12.9447068], [77.5816979, 12.9444421], [77.5817614, 12.9444659], [77.5815103, 12.9447275], [77.5814935, 12.9448602], [77.5817593, 12.9462818]]]}}, {"type": "Feature", "id": 22, "properties": {"id": 22, "name": "Kaggadasapura Lake"}, "geometry": {"type": "MultiPolygon", "coordinates": [[[[77.6701882, 12.9801342], [77.6705678, 12.9799538], [77.6704578, 12.9795252], [77.6701494, 12.9796716], [77.6701882, 12.9801342]]], [[[77.6696116, 12.982131], [77.6699227, 12.9823976], [77.6703854, 12.9835084], [77.6706335, 12.9835424], [77.6722495, 12.9821467], [77.6734116, 12.9815815], [77.6736838, 12.981575], [77.673543, 12.9814404], [77.6733271, 12.9814057], [77.6723091, 12.9816138], [77.6719545, 12.9811208], [77.6718512, 12.9808007], [77.6718526, 12.9804491], [77.6715548, 12.9793814], [77.6719505, 12.9783124], [77.6723488, 12.9779282], [77.671813, 12.9781321], [77.6714797, 12.9783595], [77.6713791, 12.9786836], [77.6711096, 12.9788273], [77.6711592, 12.9790103], [77.6709339, 12.9793461], [77.6705392, 12.9795059], [77.6706885, 12.9799133], [77.6706523, 12.9800479], [77.6701225, 12.9802936], [77.6700074, 12.9804834], [77.6697537, 12.9805955], [77.6690778, 12.9807262], [77.6692307, 12.981194], [77.6691735, 12.9820799], [77.6696116, 12.982131]]], [[[77.6691556, 12.9831556], [77.6694265, 12.9833307], [77.6699871, 12.9829935], [77.669861, 12.982544], [77.669633, 12.9822591], [77.6691368, 12.9822094], [77.6691556, 12.9831556]]]]}}, {"type": "Feature", "id": 23, "properties": {"id": 23, "name": "Dommasandra Lake"}, "geometry": {"type": "Polygon", "coordinates": [[[77.751221, 12.8761196], [77.7501902, 12.87524], [77.749712, 12.8746995], [77.7495136, 12.8741762], [77.7494636, 12.8731754], [77.7492008, 12.8724956], [77.7491444, 12.8728328], [77.748203, 12.8737663], [77.747224, 12.8740488], [77.7469261, 12.8743159], [77.7467064, 12.875495], [77.7475378, 12.8758582], [77.7478472, 12.8769385], [77.7489459, 12.8767655], [77.7504915, 12.8766819], [77.7505392, 12.876538], [77.751221, 12.8761196]]]}}, {"type": "Feature", "id": 24, "properties": {"id": 24, "name": "Lal Bahadur Shastri Nagar Lake"}, "geometry": {"type": "MultiPolygon", "coordinates": [[[[77.6778701, 12.9662238], [77.6772961, 12.9663153], [77.677056, 12.9664342], [77.6767838, 12.9667897], [77.6748921, 12.9669876], [77.6749554, 12.9671759], [77.6748848, 12.9675124], [77.6747721, 12.967549], [77.6746541, 12.9674967], [77.6747829, 12.967136], [77.6748787, 12.9671043], [77.6748693, 12.9669891], [77.6745562, 12.9670668], [77.6742089, 12.9673295], [77.6741552, 12.9674954], [77.6745381, 12.968328], [77.6747131, 12.9683959], [77.6747936, 12.9682652], [77.6748976, 12.9682728], [77.6749425, 12.9684142], [77.6748177, 12.9685109], [77.6753569, 12.9692035], [77.6758437, 12.9691434], [77.6759456, 12.9690376], [77.6760837, 12.9691853], [77.6779426, 12.9690575], [77.6783314, 12.9685894], [77.6781155, 12.9682237], [77.6780297, 12.9678382], [77.6778701, 12.9662238]]], [[[77.679804, 12.9688536], [77.6805335, 12.9691434], [77.6814938, 12.9690807], [77.6822502, 12.9692614], [77.6820356, 12.9689895], [77.6814079, 12.968788], [77.6803243, 12.9686834], [77.6787794, 12.9687932], [77.6784253, 12.968673], [77.6780873, 12.9691068], [77.6780927, 12.9695355], [77.6784065, 12.9695695], [77.6785165, 12.9695094], [77.6787472, 12.969018], [77.679804, 12.9688536]]]]}}, {"type": "Feature", "id": 25, "properties": {"id": 25, "name": ""}, "geometry": {"type": "Polygon", "coordinates": [[[77.7691698, 12.9293845], [77.76985, 12.9300132], [77.7701146, 12.9298216], [77.7715892, 12.9317295], [77.7715677, 12.9321922], [77.7713156, 12.9323412], [77.7712941, 12.9325921], [77.7714631, 12.9327987], [77.771675, 12.9328536], [77.771844, 12.9327072], [77.772316, 12.9312458], [77.7728444, 12.9308171], [77.7742016, 12.9301583], [77.774274, 12.9299178], [77.7741185, 12.9296172], [77.7728417, 12.9285584], [77.7724072, 12.9285375], [77.7714738, 12.9287336], [77.7691698, 12.9293845]]]}}, {"type": "Feature", "id": 26, "properties": {"id": 26, "name": "Chikkabelanduru Kere"}, "geometry": {"type": "Polygon", "coordinates": [[[77.713012, 12.9025203], [77.7135477, 12.9045618], [77.7134895, 12.9048249], [77.7125747, 12.9058318], [77.7118664, 12.906308], [77.7113074, 12.90653], [77.7112452, 12.906719], [77.7118107, 12.9075513], [77.7134292, 12.9078322], [77.7138608, 12.9078327], [77.713717, 12.9072263], [77.7140237, 12.9057508], [77.713816, 12.9043909], [77.7140336, 12.9036194], [77.714681, 12.902513], [77.7146583, 12.9024094], [77.7131106, 12.9008491], [77.7129741, 12.9008269], [77.7125416, 12.90096], [77.7124127, 12.9011005], [77.7124051, 12.9013298], [77.713012, 12.9025203]]]}}, {"type": "Feature", "id": 27, "properties": {"id": 27, "name": "Neriga Lake"}, "geometry": {"type": "Polygon", "coordinates": [[[77.7776188, 12.9096099], [77.7781391, 12.9100962], [77.7785736, 12.910274], [77.7786116, 12.9105857], [77.7789277, 12.9111419], [77.7793676, 12.9110008], [77.779566, 12.9108544], [77.779727, 12.9108439], [77.7797929, 12.910917], [77.7805531, 12.9104883], [77.782833, 12.9100387], [77.7829215, 12.909853], [77.7828062, 12.9097511], [77.7819961, 12.9096099], [77.7817333, 12.9091288], [77.7802956, 12.9084596], [77.7794427, 12.9082556], [77.7783644, 12.9081772], [77.7780006, 12.9084991], [77.7777579, 12.9089902], [77.7776188, 12.9096099]]]}}, {"type": "Feature", "id": 28, "properties": {"id": 28, "name": "Chikka Beguru Lake"}, "geometry": {"type": "Polygon", "coordinates": [[[77.6350601, 12.8877206], [77.635311, 12.8861416], [77.6352422, 12.8847613], [77.6350369, 12.8842552], [77.634332, 12.8835597], [77.6342236, 12.8832282], [77.6355435, 12.8839224], [77.636733, 12.8838264], [77.6369864, 12.8845658], [77.6383468, 12.884175], [77.6388581, 12.885357], [77.6370953, 12.8861152], [77.6356048, 12.8873302], [77.6353214, 12.8877273], [77.6350601, 12.8877206]]]}}, {"type": "Feature", "id": 29, "properties": {"id": 29, "name": "Nallurahalli Lake"}, "geometry": {"type": "Polygon", "coordinates": [[[77.7374675, 12.9735267], [77.7370794, 12.9738303], [77.7364145, 12.9738957], [77.7360686, 12.9738461], [77.7354327, 12.9735239], [77.7348448, 12.9728862], [77.7346096, 12.9728928], [77.7345369, 12.973718], [77.7344268, 12.9740356], [77.7336733, 12.9752339], [77.7337001, 12.975579], [77.7342443, 12.9758077], [77.7356723, 12.9758786], [77.7363249, 12.9753269], [77.7365723, 12.9751897], [77.7367855, 12.9751851], [77.7373848, 12.9744672], [77.7378368, 12.9740636], [77.7388461, 12.9737148], [77.7395466, 12.9736281], [77.7395604, 12.9735331], [77.7388086, 12.9734221], [77.7377143, 12.9734326], [77.7374675, 12.9735267]]]}}, {"type": "Feature", "id": 30, "properties": {"id": 30, "name": "Thiagalara Chowdenahalli Lake"}, "geometry": {"type": "Polygon", "coordinates": [[[77.7610803, 12.8878884], [77.7621102, 12.8886937], [77.7623892, 12.8887146], [77.7625823, 12.8886101], [77.7630114, 12.8879825], [77.7631563, 12.8875694], [77.7631992, 12.8870517], [77.7631295, 12.8863249], [77.7624482, 12.8855405], [77.7621424, 12.8848084], [77.7615631, 12.8838514], [77.7615792, 12.8846515], [77.7609408, 12.8852685], [77.760855, 12.8858438], [77.7606618, 12.8863405], [77.7606779, 12.8866543], [77.7609622, 12.8871197], [77.7609891, 12.8877158], [77.7610803, 12.8878884]]]}}, {"type": "Feature", "id": 31, "properties": {"id": 31, "name": "Sompura Lake"}, "geometry": {"type": "Polygon", "coordinates": [[[77.7688759, 12.8685423], [77.7692739, 12.8688514], [77.7695134, 12.8692085], [77.7700172, 12.8694077], [77.770232, 12.8696069], [77.7702038, 12.8697374], [77.7704187, 12.8698644], [77.7708907, 12.870383], [77.7711197, 12.870486], [77.7717185, 12.8704894], [77.7707287, 12.8709049], [77.7698093, 12.8709667], [77.7689076, 12.8715368], [77.7672484, 12.8723644], [77.7672837, 12.8721377], [77.7675479, 12.8719695], [77.7675831, 12.8718115], [77.7677768, 12.871602], [77.767708, 12.8709424], [77.7683008, 12.8700376], [77.7680379, 12.8682386], [77.7678689, 12.8679484], [77.7673969, 12.8678438], [77.7674022, 12.8677496], [77.7677563, 12.8673156], [77.7679199, 12.8674149], [77.7688759, 12.8685423]]]}}, {"type": "Feature", "id": 32, "properties": {"id": 32, "name": "Haralur Lake"}, "geometry": {"type": "Polygon", "coordinates": [[[77.6621283, 12.8947482], [77.6616641, 12.8966671], [77.6618196, 12.8974054], [77.6620007, 12.8976858], [77.6619055, 12.8979179], [77.6619751, 12.8987831], [77.66221, 12.899174], [77.6627312, 12.8996887], [77.6627664, 12.8995466], [77.6624177, 12.8989427], [77.6623104, 12.8985766], [77.6627503, 12.8978864], [77.6641773, 12.8969666], [77.6645313, 12.8967783], [77.6649068, 12.8967365], [77.6650034, 12.8965692], [77.6649605, 12.8964541], [77.6643597, 12.8964228], [77.6634889, 12.8959452], [77.6634906, 12.8956384], [77.6630284, 12.8945812], [77.6621283, 12.8947482]]]}}, {"type": "Feature", "id": 33, "properties": {"id": 33, "name": "Hoodi Lake"}, "geometry": {"type": "Polygon", "coordinates": [[[77.7214882, 12.9870368], [77.7218664, 12.9880718], [77.7218611, 12.9888584], [77.7219415, 12.9888273], [77.7220353, 12.9882992], [77.7222741, 12.9880012], [77.7225208, 12.9878392], [77.7237141, 12.9879058], [77.7239907, 12.988043], [77.7242616, 12.988388], [77.7246935, 12.9884118], [77.7246432, 12.9880866], [77.7243957, 12.987617], [77.7244341, 12.9869266], [77.7242401, 12.9862945], [77.7238608, 12.9856577], [77.7232759, 12.9856597], [77.722832, 12.9854137], [77.7216357, 12.9859312], [77.7217832, 12.986535], [77.7216973, 12.9867886], [77.7214882, 12.9870368]]]}}, {"type": "Feature", "id": 34, "properties": {"id": 34, "name": "Mahadevapura Lake"}, "geometry": {"type": "Polygon", "coordinates": [[[77.6935646, 12.9866061], [77.6934944, 12.9862786], [77.693571, 12.9860394], [77.693552, 12.9855261], [77.693431, 12.9853482], [77.6932965, 12.9854244], [77.6927749, 12.9861901], [77.691532, 12.9866883], [77.6911663, 12.9866994], [77.6908613, 12.9866135], [77.690695, 12.9869189], [77.6907311, 12.9870616], [77.69132, 12.9881846], [77.6914059, 12.9884844], [77.691883, 12.9890501], [77.6935929, 12.9885648], [77.6935646, 12.9866061]]]}}, {"type": "Feature", "id": 35, "properties": {"id": 35, "name": "Yamare Lake"}, "geometry": {"type": "Polygon", "coordinates": [[[77.75677, 12.8734107], [77.7564508, 12.874203], [77.75644, 12.8749927], [77.7560967, 12.8755679], [77.7570623, 12.8755052], [77.7572447, 12.8755836], [77.7574056, 12.8759758], [77.7576953, 12.8763105], [77.7581835, 12.8772884], [77.7582532, 12.8772989], [77.7584732, 12.8770322], [77.7585107, 12.8767446], [77.7584356, 12.8759968], [77.7585, 12.8738788], [77.7587575, 12.8734578], [77.7593529, 12.8729688], [77.7594763, 12.8725034], [77.7594146, 12.8724354], [77.7592269, 12.8728276], [77.75677, 12.8734107]]]}}, {"type": "Feature", "id": 36, "properties": {"id": 36, "name": "Arekere Lake"}, "geometry": {"type": "MultiPolygon", "coordinates": [[[[77.5965187, 12.8825414], [77.5966997, 12.882493], [77.5968191, 12.8823505], [77.596909, 12.881906], [77.5965348, 12.8818851], [77.5963551, 12.8819897], [77.5965187, 12.8825414]]], [[[77.5966744, 12.8831164], [77.597495, 12.8834853], [77.5975951, 12.8838434], [77.5994997, 12.8838145], [77.601309, 12.8843198], [77.601343, 12.884268], [77.6003549, 12.8838995], [77.6004793, 12.8822105], [77.6000147, 12.8823349], [77.5995992, 12.8823492], [77.598415, 12.8819662], [77.5970573, 12.8819242], [77.5968971, 12.8823895], [77.5965529, 12.8826761], [77.5966744, 12.8831164]]]]}}, {"type": "Feature", "id": 37, "properties": {"id": 37, "name": "Kundalahalli Lake"}, "geometry": {"type": "Polygon", "coordinates": [[[77.7195543, 12.9717833], [77.7196323, 12.9709758], [77.7192945, 12.9708603], [77.7193165, 12.9699959], [77.7194238, 12.9698495], [77.7201038, 12.9696508], [77.7201363, 12.9677856], [77.7194525, 12.9669995], [77.7195819, 12.9668989], [77.7202192, 12.967501], [77.7208498, 12.967682], [77.7212787, 12.9676586], [77.7214995, 12.9678671], [77.721618, 12.96887], [77.7214171, 12.9689548], [77.7212153, 12.9700578], [77.7208833, 12.9701955], [77.7208324, 12.9703249], [77.7208686, 12.9706163], [77.7210832, 12.9707836], [77.7207129, 12.9718985], [77.7195543, 12.9717833]]]}}, {"type": "Feature", "id": 38, "properties": {"id": 38, "name": ""}, "geometry": {"type": "Polygon", "coordinates": [[[77.7756983, 12.8844789], [77.7731341, 12.8855875], [77.7724153, 12.8852528], [77.7722007, 12.8854306], [77.7721149, 12.8856503], [77.7721256, 12.8859222], [77.7722651, 12.8860791], [77.7725226, 12.8860059], [77.7726406, 12.8861105], [77.773338, 12.8871563], [77.7737135, 12.8872504], [77.7744645, 12.8872504], [77.7749151, 12.8871459], [77.7753657, 12.8866438], [77.7758807, 12.885211], [77.7758592, 12.8848345], [77.7756983, 12.8844789]]]}}, {"type": "Feature", "id": 39, "properties": {"id": 39, "name": "Thubarahalli Lake"}, "geometry": {"type": "Polygon", "coordinates": [[[77.7273569, 12.9573814], [77.726921, 12.9572713], [77.7263028, 12.957418], [77.7250797, 12.9574468], [77.7242348, 12.9569171], [77.7238935, 12.9569718], [77.7239086, 12.9572946], [77.7243394, 12.9574033], [77.7244896, 12.9577709], [77.7242234, 12.9594127], [77.7243077, 12.9598093], [77.7254534, 12.9598713], [77.7256647, 12.9598227], [77.7263944, 12.9593875], [77.7268071, 12.9583146], [77.7273569, 12.9573814]]]}}, {"type": "Feature", "id": 40, "properties": {"id": 40, "name": "Choodasandra Lake"}, "geometry": {"type": "MultiPolygon", "coordinates": [[[[77.6770654, 12.8862314], [77.6774316, 12.8862111], [77.6773705, 12.8859444], [77.6770661, 12.8859738], [77.6770654, 12.8862314]]], [[[77.6774785, 12.8865628], [77.6774342, 12.8862621], [77.6770614, 12.8863026], [77.6770627, 12.8865876], [77.6774785, 12.8865628]]], [[[77.6798683, 12.8861497], [77.6797112, 12.8866756], [77.6798523, 12.8873095], [77.6800284, 12.8874448], [77.6805426, 12.8874798], [77.6805362, 12.8872217], [77.6803331, 12.8871624], [77.6803154, 12.8869583], [77.6804611, 12.8868517], [77.6803632, 12.8862556], [77.6798683, 12.8861497]]], [[[77.6774168, 12.8858804], [77.6775455, 12.8865706], [77.6774785, 12.8866308], [77.6770547, 12.8866308], [77.6771248, 12.8871888], [77.6779515, 12.887707], [77.6788518, 12.8881133], [77.6796699, 12.8881237], [77.6796806, 12.8879355], [77.6798201, 12.8878309], [77.6795648, 12.8870546], [77.6794848, 12.8862935], [77.6796248, 12.8860664], [77.6800869, 12.8858278], [77.6800963, 12.8857366], [77.6783127, 12.8857784], [77.6774168, 12.8858804]]]]}}, {"type": "Feature", "id": 41, "properties": {"id": 41, "name": "Doddakannelli Lake"}, "geometry": {"type": "MultiPolygon", "coordinates": [[[[77.6944569, 12.911406], [77.6944199, 12.9113455], [77.6945432, 12.9113046], [77.6944722, 12.9111787], [77.6939035, 12.9110507], [77.6925554, 12.9101273], [77.6923857, 12.9109465], [77.6919932, 12.9120522], [77.6915912, 12.9125646], [77.6913586, 12.9126879], [77.6914131, 12.9129071], [77.6930254, 12.9125728], [77.6951411, 12.912928], [77.6948994, 12.9116523], [77.6946956, 12.9116766], [77.6945751, 12.9113792], [77.6944569, 12.911406]]], [[[77.6949705, 12.9116243], [77.6952213, 12.9129419], [77.6954882, 12.9130014], [77.6955324, 12.912808], [77.6954372, 12.9122145], [77.6950845, 12.9115962], [77.6949705, 12.9116243]]]]}}, {"type": "Feature", "id": 42, "properties": {"id": 42, "name": "Sulakunte Lake"}, "geometry": {"type": "Polygon", "coordinates": [[[77.7297789, 12.8789566], [77.7295214, 12.8795057], [77.7292532, 12.8798352], [77.72847, 12.8804523], [77.7284592, 12.880651], [77.7290869, 12.8806144], [77.7294731, 12.8807033], [77.7306372, 12.8813256], [77.73112, 12.8817439], [77.7313185, 12.8816237], [77.7315223, 12.88097], [77.7315921, 12.8803686], [77.7314794, 12.8796417], [77.7307284, 12.8781722], [77.7303743, 12.8781565], [77.7297789, 12.8789566]]]}}, {"type": "Feature", "id": 43, "properties": {"id": 43, "name": ""}, "geometry": {"type": "Polygon", "coordinates": [[[77.7544396, 12.8872405], [77.7540663, 12.8873655], [77.7539354, 12.8875961], [77.7539354, 12.8878471], [77.7537337, 12.8881394], [77.7533775, 12.8884223], [77.7532616, 12.8889761], [77.7533238, 12.8907964], [77.7534633, 12.8912461], [77.7536564, 12.8913402], [77.7541929, 12.8913716], [77.755534, 12.8911206], [77.75574, 12.8909527], [77.7556949, 12.8907964], [77.7552894, 12.8904612], [77.7550941, 12.890127], [77.7545362, 12.8888616], [77.7543645, 12.8879621], [77.7544396, 12.8872405]]]}}, {"type": "Feature", "id": 44, "properties": {"id": 44, "name": "Chunchagatta Lake"}, "geometry": {"type": "Polygon", "coordinates": [[[77.5755171, 12.8911562], [77.5753429, 12.890529], [77.5756691, 12.8889728], [77.5759572, 12.8879816], [77.5766539, 12.8863988], [77.5770843, 12.885728], [77.5770257, 12.8854478], [77.5765126, 12.8856715], [77.5759237, 12.8862312], [77.5740984, 12.8873078], [77.5740546, 12.8873977], [77.5740678, 12.8877173], [77.5745689, 12.8883044], [77.5749996, 12.8890313], [77.575094, 12.8893325], [77.5750093, 12.8904293], [77.5754017, 12.8911581], [77.5755171, 12.8911562]]]}}, {"type": "Feature", "id": 45, "properties": {"id": 45, "name": ""}, "geometry": {"type": "Polygon", "coordinates": [[[77.6361775, 12.895831], [77.6365622, 12.8966427], [77.6367019, 12.897181], [77.6367117, 12.8976648], [77.6369225, 12.8980209], [77.6370066, 12.8977219], [77.637212, 12.8977161], [77.6374424, 12.8972314], [77.6387311, 12.897205], [77.6387584, 12.8967643], [77.6385709, 12.8965356], [77.6384331, 12.8954912], [77.6380703, 12.8952868], [77.6378881, 12.8947112], [77.636942, 12.8945912], [77.6361775, 12.895831]]]}}, {"type": "Feature", "id": 46, "properties": {"id": 46, "name": "Benniganahalli Lake"}, "geometry": {"type": "Polygon", "coordinates": [[[77.6646172, 12.9958997], [77.664424, 12.9961141], [77.6640524, 12.9970119], [77.6640811, 12.9972349], [77.6660659, 12.9982905], [77.6663333, 12.997675], [77.6669374, 12.9972401], [77.6671842, 12.997112], [77.6682001, 12.9969955], [77.6682592, 12.9969327], [77.6682707, 12.9968637], [77.6656735, 12.9960023], [77.6646172, 12.9958997]]]}}, {"type": "Feature", "id": 47, "properties": {"id": 47, "name": "Hadosiddapura Lake"}, "geometry": {"type": "Polygon", "coordinates": [[[77.700575, 12.8903514], [77.7017969, 12.8910217], [77.7022361, 12.8914141], [77.7027348, 12.8924829], [77.7029708, 12.8928887], [77.7030559, 12.892831], [77.7027279, 12.8920266], [77.7027746, 12.891865], [77.7029379, 12.8918831], [77.7030935, 12.8914691], [77.7031084, 12.8911531], [77.7036103, 12.8902921], [77.7037642, 12.8902232], [77.7036837, 12.8900033], [77.7038844, 12.8896898], [77.7037928, 12.8895553], [77.7029972, 12.8892935], [77.7027811, 12.8893821], [77.7013823, 12.8895069], [77.7005723, 12.890218], [77.700575, 12.8903514]]]}}, {"type": "Feature", "id": 48, "properties": {"id": 48, "name": "Kodathi Kere"}, "geometry": {"type": "Polygon", "coordinates": [[[77.7210617, 12.8904194], [77.7214479, 12.890503], [77.7219951, 12.8901684], [77.7223813, 12.8895513], [77.7226496, 12.8887356], [77.7225852, 12.8884636], [77.7219844, 12.8878257], [77.7214265, 12.8876897], [77.7209973, 12.887878], [77.7207184, 12.888244], [77.7206325, 12.8894363], [77.720257, 12.890001], [77.7203429, 12.890252], [77.7206755, 12.8904403], [77.7210617, 12.8904194]]]}}, {"type": "Feature", "id": 49, "properties": {"id": 49, "name": ""}, "geometry": {"type": "Polygon", "coordinates": [[[77.7594227, 12.9108125], [77.7588487, 12.9091184], [77.7590418, 12.908606], [77.7596211, 12.9084962], [77.760576, 12.9081511], [77.7611715, 12.9100073], [77.7616006, 12.910321], [77.7615792, 12.9105093], [77.7598411, 12.9106661], [77.7594227, 12.9108125]]]}}, {"type": "Feature", "id": 50, "properties": {"id": 50, "name": ""}, "geometry": {"type": "Polygon", "coordinates": [[[77.7799898, 12.8878989], [77.7796036, 12.8887094], [77.7798718, 12.8902259], [77.7810305, 12.890205], [77.7821463, 12.8899069], [77.7821141, 12.8897134], [77.7814597, 12.8891173], [77.7808589, 12.8880191], [77.7806979, 12.8875276], [77.7805799, 12.8874962], [77.7799898, 12.8878989]]]}}, {"type": "Feature", "id": 51, "properties": {"id": 51, "name": "Kadiranpalaya Kere"}, "geometry": {"type": "Polygon", "coordinates": [[[77.6348475, 12.9829831], [77.6349013, 12.9828419], [77.6350435, 12.9827609], [77.6364141, 12.9829047], [77.6371648, 12.9831007], [77.6373472, 12.9837489], [77.637366, 12.9842141], [77.6367412, 12.9843997], [77.6362369, 12.9844075], [77.6361003, 12.9848492], [77.6359124, 12.9851419], [77.6357836, 12.9850844], [77.6356066, 12.98481], [77.6347644, 12.984073], [77.6347402, 12.9838795], [77.6349012, 12.983579], [77.6348208, 12.9833019], [77.6349067, 12.9831399], [77.6348475, 12.9829831]]]}}, {"type": "Feature", "id": 52, "properties": {"id": 52, "name": "Hegondanahalli Lake"}, "geometry": {"type": "Polygon", "coordinates": [[[77.7392578, 12.9082765], [77.7396011, 12.9083236], [77.7402046, 12.9081437], [77.741382, 12.9082812], [77.7418059, 12.9086269], [77.7418542, 12.9091079], [77.7421063, 12.9090975], [77.7421394, 12.9086339], [77.7423762, 12.9083685], [77.7423853, 12.908036], [77.7425569, 12.9077171], [77.7426239, 12.9072902], [77.7419615, 12.9066478], [77.7417969, 12.9065713], [77.7403575, 12.9069563], [77.7402997, 12.9070672], [77.7404498, 12.9073674], [77.7403736, 12.9075837], [77.7396149, 12.9079346], [77.7393291, 12.9077865], [77.7392578, 12.9082765]]]}}, {"type": "Feature", "id": 53, "properties": {"id": 53, "name": "Pattandur Agrahara Lake"}, "geometry": {"type": "Polygon", "coordinates": [[[77.746732, 12.9750139], [77.7467117, 12.975819], [77.7459231, 12.9760359], [77.7459365, 12.9766553], [77.7461296, 12.9769455], [77.7470764, 12.9768226], [77.7473527, 12.9768671], [77.7474359, 12.9770605], [77.7473447, 12.9773297], [77.746717, 12.9775492], [77.7459955, 12.9776433], [77.7452606, 12.977578], [77.7451238, 12.9775048], [77.7449656, 12.9773088], [77.7445123, 12.9762424], [77.7444318, 12.9758634], [77.7449897, 12.9758059], [77.7460894, 12.9754949], [77.7465904, 12.9748802], [77.746732, 12.9750139]]]}}, {"type": "Feature", "id": 54, "properties": {"id": 54, "name": "Sheelavathana Kere"}, "geometry": {"type": "Polygon", "coordinates": [[[77.7430505, 12.9637096], [77.7419611, 12.963183], [77.741796, 12.9632036], [77.7417083, 12.9638726], [77.7419921, 12.9647663], [77.7422566, 12.9652361], [77.7427128, 12.9655993], [77.7429062, 12.9656741], [77.7431674, 12.9651767], [77.7448422, 12.9651525], [77.744942, 12.9649752], [77.745166, 12.9648419], [77.7456166, 12.9647608], [77.7456791, 12.9646759], [77.7456938, 12.9646278], [77.7454924, 12.9646124], [77.7436942, 12.9647552], [77.7435655, 12.9642324], [77.7434046, 12.963971], [77.7430505, 12.9637096]]]}}, {"type": "Feature", "id": 55, "properties": {"id": 55, "name": "Krishna Nagara Lake"}, "geometry": {"type": "Polygon", "coordinates": [[[77.5800083, 12.8730204], [77.5803015, 12.8738103], [77.5809129, 12.8745318], [77.5807795, 12.8746374], [77.5808395, 12.8747119], [77.5809824, 12.8746067], [77.581214, 12.8747643], [77.5812986, 12.8748498], [77.5813476, 12.8751984], [77.579451, 12.8747486], [77.5790029, 12.8749419], [77.5783896, 12.8755823], [77.5787772, 12.874875], [77.5788711, 12.8741128], [77.5788563, 12.8733088], [77.579091, 12.8725714], [77.5793687, 12.8725315], [77.579769, 12.8726413], [77.5798756, 12.8728002], [77.5798086, 12.8729708], [77.5800083, 12.8730204]]]}}, {"type": "Feature", "id": 56, "properties": {"id": 56, "name": "Munekolala Lake"}, "geometry": {"type": "Polygon", "coordinates": [[[77.7096855, 12.9599131], [77.7096277, 12.9598296], [77.7088076, 12.960139], [77.7070381, 12.9600464], [77.7069774, 12.9602067], [77.7071802, 12.9605564], [77.7072877, 12.9613454], [77.7075895, 12.961731], [77.7076238, 12.9619005], [77.7081415, 12.9620939], [77.7088201, 12.9617907], [77.7091853, 12.961182], [77.7096855, 12.9599131]]]}}, {"type": "Feature", "id": 57, "properties": {"id": 57, "name": ""}, "geometry": {"type": "Polygon", "coordinates": [[[77.6091371, 12.9030058], [77.610316, 12.9028803], [77.611248, 12.9025966], [77.6113122, 12.9022004], [77.6117751, 12.9020345], [77.6117049, 12.9000372], [77.6122914, 12.8999429], [77.6124039, 12.8997945], [77.6119635, 12.898052], [77.6121459, 12.8979209], [77.6129498, 12.8980378], [77.6130434, 12.898184], [77.613139, 12.8988932], [77.6132761, 12.8992694], [77.6134354, 12.8993102], [77.6138751, 12.8991788], [77.6140455, 12.8992408], [77.6157407, 12.9010515], [77.6168123, 12.9019103], [77.6172723, 12.9021038], [77.6175486, 12.9027195], [77.6176853, 12.9027627], [77.6182652, 12.9026284], [77.6184122, 12.9027169], [77.6183479, 12.9035797], [77.618887, 12.9057301], [77.6202495, 12.9072295], [77.620381, 12.9076269], [77.6206867, 12.9078256], [77.6207887, 12.9079916], [77.6205426, 12.9090115], [77.6206009, 12.9100972], [77.6207883, 12.9106191], [77.6210954, 12.9109093], [77.6211789, 12.9118387], [77.6213499, 12.9124955], [77.6214479, 12.9125428], [77.6214653, 12.912172], [77.6212017, 12.9108504], [77.6209348, 12.9106779], [77.6206901, 12.9100916], [77.6206438, 12.909006], [77.6208738, 12.9081412], [77.6208745, 12.9078484], [77.6204903, 12.9076027], [77.620326, 12.9071216], [77.6190265, 12.9057144], [77.6184618, 12.9035496], [77.6184444, 12.9034058], [77.618604, 12.9031065], [77.6184967, 12.9025587], [77.6183546, 12.9024855], [77.6176196, 12.9026646], [77.6173662, 12.9019443], [77.6170684, 12.9019038], [77.6168346, 12.9017658], [77.6157944, 12.900956], [77.6139557, 12.898999], [77.6134394, 12.8991285], [77.6132986, 12.8988853], [77.6130491, 12.8978029], [77.6124001, 12.8978108], [77.6117483, 12.8979206], [77.6122445, 12.8997638], [77.611582, 12.8998684], [77.6116624, 12.9019443], [77.6111837, 12.9021299], [77.6111381, 12.9024646], [77.611063, 12.9025117], [77.6103039, 12.9027731], [77.6091197, 12.9028685], [77.6091371, 12.9030058]]]}}, {"type": "Feature", "id": 58, "properties": {"id": 58, "name": "Parappana Agrahara Lake"}, "geometry": {"type": "Polygon", "coordinates": [[[77.6616105, 12.8777748], [77.6599368, 12.8779866], [77.6603284, 12.8796391], [77.66035, 12.8806294], [77.6605175, 12.8804784], [77.6605375, 12.8801047], [77.660626, 12.8799251], [77.6614322, 12.8794155], [77.6622366, 12.8791913], [77.6623756, 12.8792815], [77.6625679, 12.8796974], [77.662747, 12.8796729], [77.6625372, 12.8791658], [77.6621202, 12.8786926], [77.6616105, 12.8777748]]]}}, {"type": "Feature", "id": 59, "properties": {"id": 59, "name": "Panathuru Kere"}, "geometry": {"type": "Polygon", "coordinates": [[[77.7061443, 12.9335915], [77.7062759, 12.9335699], [77.7064794, 12.9328645], [77.7073575, 12.9325179], [77.7076366, 12.9318482], [77.7076553, 12.9312879], [77.7075411, 12.9301701], [77.7071504, 12.929974], [77.706963, 12.9299704], [77.706819, 12.9301533], [77.7066169, 12.9313345], [77.7065317, 12.9310729], [77.7060656, 12.9310752], [77.7059826, 12.9311916], [77.7060407, 12.931921], [77.7063029, 12.9318484], [77.7063605, 12.9319007], [77.7060561, 12.9321438], [77.7061443, 12.9335915]]]}}, {"type": "Feature", "id": 60, "properties": {"id": 60, "name": "Byrasandra Melina Kere"}, "geometry": {"type": "Polygon", "coordinates": [[[77.6562952, 12.9804831], [77.6541048, 12.9796447], [77.6543153, 12.9789249], [77.6544747, 12.9786721], [77.6558738, 12.9783195], [77.6570506, 12.97775], [77.6570587, 12.9779936], [77.6560556, 12.9789032], [77.6560234, 12.9790338], [77.6562326, 12.9798598], [77.6562952, 12.9804831]]]}}, {"type": "Feature", "id": 61, "properties": {"id": 61, "name": "Seetharampalya Lake"}, "geometry": {"type": "Polygon", "coordinates": [[[77.7136239, 12.9814723], [77.7135089, 12.9809729], [77.7133623, 12.98094], [77.7123722, 12.9810686], [77.7123741, 12.9819316], [77.7124782, 12.9826453], [77.7123404, 12.9828834], [77.7123559, 12.9837769], [77.7132608, 12.9831351], [77.7138033, 12.9824274], [77.7143776, 12.982061], [77.7143528, 12.98192], [77.7142343, 12.9818178], [77.7136239, 12.9814723]]]}}, {"type": "Feature", "id": 62, "properties": {"id": 62, "name": ""}, "geometry": {"type": "Polygon", "coordinates": [[[77.764712, 12.876755], [77.7649373, 12.8762687], [77.7649963, 12.8758869], [77.7648729, 12.8754163], [77.7646422, 12.8753431], [77.7641594, 12.8753692], [77.7637839, 12.8752071], [77.7633387, 12.8748724], [77.7630597, 12.8748463], [77.7624911, 12.875228], [77.7624106, 12.8756045], [77.7625018, 12.8758346], [77.7633601, 12.8762635], [77.7635103, 12.8767446], [77.7636716, 12.8768017], [77.764712, 12.876755]]]}}, {"type": "Feature", "id": 63, "properties": {"id": 63, "name": "Yediyur Lake"}, "geometry": {"type": "Polygon", "coordinates": [[[77.5757616, 12.933346], [77.5755163, 12.934232], [77.5757228, 12.9342343], [77.5761452, 12.9345866], [77.5768441, 12.9346157], [77.57698, 12.9344803], [77.5770004, 12.934281], [77.5772038, 12.9341682], [77.5776899, 12.9341585], [77.5778541, 12.933212], [77.5772027, 12.9328465], [77.5759097, 12.932624], [77.5758038, 12.9326675], [77.5757824, 12.9330357], [77.5760078, 12.9331403], [77.5760163, 12.9333027], [77.5757616, 12.933346]]]}}, {"type": "Feature", "id": 64, "properties": {"id": 64, "name": "Deverabisanahalli Lake"}, "geometry": {"type": "MultiPolygon", "coordinates": [[[[77.6879022, 12.9224388], [77.6882207, 12.9226476], [77.6885424, 12.9226872], [77.6884853, 12.9225123], [77.6883657, 12.9224475], [77.6880221, 12.9224015], [77.6879022, 12.9224388]]], [[[77.6886411, 12.9231859], [77.6885432, 12.9227548], [77.688146, 12.9226762], [77.6878489, 12.9224969], [77.6879364, 12.9232358], [77.6880459, 12.9233671], [77.6886411, 12.9231859]]], [[[77.6859659, 12.9224681], [77.6861486, 12.9232763], [77.6861862, 12.9244372], [77.686256, 12.924492], [77.6866118, 12.9243423], [77.6868394, 12.9239169], [77.6878645, 12.9234512], [77.6877301, 12.9224568], [77.6859659, 12.9224681]]]]}}, {"type": "Feature", "id": 65, "properties": {"id": 65, "name": "Bhoganahalli Lake"}, "geometry": {"type": "Polygon", "coordinates": [[[77.6982307, 12.9225884], [77.6980013, 12.9228848], [77.6981501, 12.92313], [77.6995362, 12.9248207], [77.6993917, 12.9240113], [77.6994288, 12.9237047], [77.6997174, 12.9230655], [77.6998281, 12.922905], [77.7001094, 12.9227406], [77.7000894, 12.9226587], [77.6989664, 12.9217899], [77.6983094, 12.9217774], [77.6982307, 12.9225884]]]}}, {"type": "Feature", "id": 66, "properties": {"id": 66, "name": "Pattandur Agrahara Kunte"}, "geometry": {"type": "Polygon", "coordinates": [[[77.7386648, 12.9790849], [77.7377856, 12.9797196], [77.7367753, 12.98022], [77.7369631, 12.9804553], [77.7385816, 12.9811118], [77.7388178, 12.9810043], [77.7392016, 12.9799846], [77.7391479, 12.9790536], [77.7389332, 12.9786037], [77.7386648, 12.9790849]]]}}, {"type": "Feature", "id": 67, "properties": {"id": 67, "name": "K100"}, "geometry": {"type": "Polygon", "coordinates": [[[77.6212761, 12.9515094], [77.6213423, 12.9516493], [77.6199666, 12.9521764], [77.6197172, 12.9522396], [77.6186961, 12.9522163], [77.6182386, 12.9519408], [77.6175767, 12.9508841], [77.6174064, 12.9507515], [77.6152325, 12.9509952], [77.6149106, 12.9508175], [77.6128026, 12.9501216], [77.6112802, 12.9498195], [77.6111474, 12.9493762], [77.6101087, 12.9494448], [77.6063688, 12.950072], [77.6055014, 12.9501117], [77.6036131, 12.9504411], [77.6035712, 12.9502027], [77.6106995, 12.9492569], [77.6110563, 12.9492752], [77.6112789, 12.9493353], [77.6113473, 12.9497262], [77.6120648, 12.949832], [77.6153397, 12.9507652], [77.6175037, 12.9505828], [77.6176726, 12.950692], [77.6183599, 12.9518709], [77.6186778, 12.9520918], [77.6197554, 12.9520975], [77.6212761, 12.9515094]]]}}, {"type": "Feature", "id": 68, "properties": {"id": 68, "name": ""}, "geometry": {"type": "Polygon", "coordinates": [[[77.7561289, 12.9056569], [77.75747, 12.9050451], [77.7583444, 12.9047941], [77.757647, 12.904449], [77.756499, 12.9037117], [77.7556032, 12.9046006], [77.7554798, 12.9050189], [77.7555335, 12.9054268], [77.7556568, 12.9056307], [77.7561289, 12.9056569]]]}}, {"type": "Feature", "id": 69, "properties": {"id": 69, "name": "Puttenhalli Lake"}, "geometry": {"type": "Polygon", "coordinates": [[[77.5859393, 12.8914474], [77.5860502, 12.8915498], [77.5862131, 12.8915189], [77.5869906, 12.8911655], [77.5870526, 12.8910337], [77.5871349, 12.8911135], [77.5876353, 12.8911346], [77.5882644, 12.8914306], [77.5881602, 12.8910056], [77.5881908, 12.8904203], [77.5879666, 12.8899245], [77.5880032, 12.8892275], [77.5872452, 12.8893301], [77.5859393, 12.8914474]]]}}, {"type": "Feature", "id": 70, "properties": {"id": 70, "name": "Ambalipura Upper Lake"}, "geometry": {"type": "Polygon", "coordinates": [[[77.6629735, 12.9120797], [77.6633168, 12.9122638], [77.6643468, 12.9132343], [77.6648189, 12.9134518], [77.664733, 12.9135689], [77.6641929, 12.9134517], [77.6626485, 12.9141038], [77.6621667, 12.9131255], [77.6621152, 12.9127156], [77.6622182, 12.9124562], [77.6624757, 12.9121718], [77.6627418, 12.9120546], [77.6629735, 12.9120797]]]}}, {"type": "Feature", "id": 71, "properties": {"id": 71, "name": "Devara Kere"}, "geometry": {"type": "Polygon", "coordinates": [[[77.7289474, 12.896663], [77.7290064, 12.8968774], [77.7286041, 12.8971388], [77.7294838, 12.8982317], [77.7297842, 12.8988278], [77.7298808, 12.8998109], [77.7307874, 12.8994449], [77.7308089, 12.899335], [77.7297199, 12.896731], [77.7294785, 12.8965793], [77.7289474, 12.896663]]]}}, {"type": "Feature", "id": 72, "properties": {"id": 72, "name": "Hoodi Lake"}, "geometry": {"type": "Polygon", "coordinates": [[[77.7161131, 12.9991391], [77.7167176, 12.9990163], [77.7174456, 12.9991704], [77.7179235, 12.9991558], [77.7179519, 12.9993211], [77.7171813, 12.9999282], [77.7167492, 13.0005301], [77.7167299, 13.000772], [77.7170461, 13.0013327], [77.7168161, 13.0016815], [77.7166182, 13.0015781], [77.7163863, 13.0015728], [77.7163457, 13.0012602], [77.7159481, 13.0006992], [77.7162235, 13.0003357], [77.7158501, 13.0000077], [77.7158128, 12.9997129], [77.7155525, 12.999527], [77.7161131, 12.9991391]]]}}, {"type": "Feature", "id": 73, "properties": {"id": 73, "name": ""}, "geometry": {"type": "Polygon", "coordinates": [[[77.7047928, 12.9426016], [77.7047794, 12.9431846], [77.7046332, 12.9433858], [77.7038701, 12.9436263], [77.7038192, 12.9445791], [77.703736, 12.9448027], [77.7033323, 12.9452457], [77.7028737, 12.9454496], [77.7016694, 12.9454561], [77.700477, 12.9457921], [77.6991615, 12.9458744], [77.6981194, 12.9461868], [77.6963921, 12.9456692], [77.6954949, 12.9460652], [77.6951476, 12.9460168], [77.6948472, 12.9458365], [77.694646, 12.945528], [77.6934551, 12.9451176], [77.6926791, 12.9446273], [77.6927335, 12.9445569], [77.6934122, 12.9449673], [77.6949249, 12.945464], [77.6951154, 12.9457776], [77.6953246, 12.9458691], [77.6956116, 12.945877], [77.6965758, 12.9454588], [77.6972626, 12.9456642], [77.6975964, 12.945877], [77.6979773, 12.9459554], [77.6986103, 12.945775], [77.7006622, 12.9456273], [77.7011047, 12.9452928], [77.702647, 12.9453555], [77.7029286, 12.9453058], [77.7032264, 12.9451098], [77.703567, 12.9447255], [77.7037092, 12.9444824], [77.7037521, 12.9435936], [77.7045648, 12.9432578], [77.7046493, 12.9430499], [77.7046077, 12.9425977], [77.7049939, 12.9423376], [77.7051455, 12.9419455], [77.705403, 12.9418278], [77.7063565, 12.9419912], [77.7065429, 12.9418762], [77.7066695, 12.9418912], [77.7066414, 12.9421024], [77.7064383, 12.9421036], [77.7063977, 12.9422256], [77.7054217, 12.9419873], [77.7052849, 12.9420657], [77.7049872, 12.9425598], [77.7047928, 12.9426016]]]}}, {"type": "Feature", "id": 74, "properties": {"id": 74, "name": "Kudlu Lake/Kere"}, "geometry": {"type": "Polygon", "coordinates": [[[77.6555065, 12.8928334], [77.6561692, 12.8934665], [77.6562446, 12.8933719], [77.6556677, 12.8925361], [77.6556135, 12.8920903], [77.6559774, 12.8906836], [77.6545441, 12.8906742], [77.6541545, 12.890749], [77.654114, 12.8908893], [77.6544436, 12.8920209], [77.6555065, 12.8928334]]]}}, {"type": "Feature", "id": 75, "properties": {"id": 75, "name": ""}, "geometry": {"type": "Polygon", "coordinates": [[[77.6385382, 12.9970519], [77.6390853, 12.9969369], [77.6401341, 12.9968768], [77.6402011, 12.9969683], [77.6402763, 12.9982437], [77.6401475, 12.9984867], [77.6396298, 12.998735], [77.6387528, 12.9982646], [77.6383558, 12.9972871], [77.6385382, 12.9970519]]]}}, {"type": "Feature", "id": 76, "properties": {"id": 76, "name": "K100"}, "geometry": {"type": "Polygon", "coordinates": [[[77.6427871, 12.9289343], [77.6423952, 12.9290996], [77.6420854, 12.9291113], [77.6419204, 12.9293205], [77.6407295, 12.929093], [77.6386467, 12.9301764], [77.6382317, 12.9301456], [77.6372978, 12.9292236], [77.6368657, 12.9285515], [77.6365422, 12.9284805], [77.6355759, 12.9289556], [77.6351453, 12.9295027], [77.6338673, 12.9306308], [77.6333378, 12.931157], [77.6332452, 12.9314208], [77.6300061, 12.9345939], [77.6294102, 12.936276], [77.6286697, 12.9377244], [77.6285068, 12.9384408], [77.628638, 12.9384769], [77.6288524, 12.9375955], [77.6296348, 12.9359276], [77.630161, 12.934574], [77.63338, 12.9313976], [77.6333875, 12.9312313], [77.6352874, 12.929501], [77.6356642, 12.9290231], [77.6365605, 12.9285971], [77.6367981, 12.9286046], [77.6371962, 12.9292965], [77.6378679, 12.9301148], [77.6382351, 12.9303054], [77.6385865, 12.9303544], [77.6406048, 12.9293153], [77.6419781, 12.9295309], [77.6428272, 12.9291438], [77.6427871, 12.9289343]]]}}, {"type": "Feature", "id": 77, "properties": {"id": 77, "name": ""}, "geometry": {"type": "Polygon", "coordinates": [[[77.6667678, 12.9990779], [77.6658582, 12.9991486], [77.6653839, 12.9993342], [77.6646411, 12.9999092], [77.6642481, 13.0005686], [77.6641598, 13.0005455], [77.6642721, 12.9990702], [77.6642162, 12.998542], [77.6639883, 12.9979477], [77.664106, 12.9977997], [77.6657176, 12.9986864], [77.6667678, 12.9990779]]]}}, {"type": "Feature", "id": 78, "properties": {"id": 78, "name": "Begur Kere"}, "geometry": {"type": "Polygon", "coordinates": [[[77.6419915, 12.8801038], [77.6419231, 12.8789017], [77.6416227, 12.8781657], [77.6415235, 12.8779853], [77.6412821, 12.8778127], [77.6407792, 12.8778127], [77.641219, 12.8772989], [77.6422068, 12.8770943], [77.6425099, 12.8774617], [77.6429384, 12.8776368], [77.6422302, 12.8792985], [77.6421726, 12.8800842], [77.6419915, 12.8801038]]]}}, {"type": "Feature", "id": 79, "properties": {"id": 79, "name": "Byrasandra Lake"}, "geometry": {"type": "MultiPolygon", "coordinates": [[[[77.6611974, 12.9777191], [77.6614267, 12.9777094], [77.6615547, 12.9775183], [77.6611841, 12.9776009], [77.6611974, 12.9777191]]], [[[77.6628394, 12.9797354], [77.6624207, 12.9786434], [77.6625144, 12.9781452], [77.6628757, 12.9773554], [77.6627451, 12.9773385], [77.6626395, 12.9774455], [77.6620988, 12.9775698], [77.6617126, 12.977491], [77.6614502, 12.9778033], [77.6612046, 12.9778791], [77.6612471, 12.97827], [77.661425, 12.978437], [77.6614114, 12.9789253], [77.6611536, 12.9789538], [77.6611598, 12.9790983], [77.6616776, 12.979205], [77.6628394, 12.9797354]]]]}}, {"type": "Feature", "id": 80, "properties": {"id": 80, "name": "Byrasandra Lake"}, "geometry": {"type": "Polygon", "coordinates": [[[77.5949201, 12.9297087], [77.5952648, 12.9310459], [77.5959045, 12.9312694], [77.5963443, 12.9311831], [77.5964034, 12.9299178], [77.5962183, 12.9294734], [77.5957006, 12.9294342], [77.5949576, 12.929625], [77.5949201, 12.9297087]]]}}, {"type": "Feature", "id": 81, "properties": {"id": 81, "name": "Somasundarapalya Lake"}, "geometry": {"type": "Polygon", "coordinates": [[[77.6473116, 12.8992482], [77.6485924, 12.8993364], [77.6488647, 12.8992605], [77.6488208, 12.8986034], [77.6486246, 12.8979272], [77.6474181, 12.8978935], [77.6472482, 12.8990684], [77.6473116, 12.8992482]]]}}, {"type": "Feature", "id": 82, "properties": {"id": 82, "name": ""}, "geometry": {"type": "Polygon", "coordinates": [[[77.7144506, 12.9851455], [77.7144677, 12.9849926], [77.7139647, 12.9833676], [77.7137125, 12.9835345], [77.7135408, 12.9834352], [77.7135515, 12.9833281], [77.713713, 12.9831823], [77.7136722, 12.983036], [77.7133076, 12.9832658], [77.7127344, 12.9838313], [77.7125205, 12.9839172], [77.713573, 12.9849041], [77.7144506, 12.9851455]]]}}, {"type": "Feature", "id": 83, "properties": {"id": 83, "name": "Iblur Lake"}, "geometry": {"type": "Polygon", "coordinates": [[[77.6661478, 12.9220409], [77.6660874, 12.9223543], [77.6658819, 12.9225334], [77.6655266, 12.9226123], [77.6655443, 12.9228221], [77.6663963, 12.9229567], [77.6678737, 12.9230095], [77.6679902, 12.9229437], [77.6677237, 12.9221541], [77.667622, 12.9220797], [77.6669961, 12.9217844], [77.6661478, 12.9220409]]]}}, {"type": "Feature", "id": 84, "properties": {"id": 84, "name": ""}, "geometry": {"type": "Polygon", "coordinates": [[[77.6706415, 12.8979493], [77.6709473, 12.898101], [77.6712906, 12.8979127], [77.6713926, 12.8977245], [77.6720256, 12.8974735], [77.6719451, 12.8970761], [77.6714086, 12.8963022], [77.6705879, 12.8960616], [77.6705021, 12.8963179], [77.6706898, 12.8967519], [77.6705718, 12.8973114], [77.6706415, 12.8979493]]]}}, {"type": "Feature", "id": 85, "properties": {"id": 85, "name": ""}, "geometry": {"type": "Polygon", "coordinates": [[[77.6261864, 12.9329406], [77.6260686, 12.9336796], [77.6259722, 12.9337223], [77.6258406, 12.9334966], [77.6252318, 12.9315229], [77.6255726, 12.9314499], [77.6264604, 12.9315715], [77.6273104, 12.9313654], [77.6266199, 12.9319818], [77.6261864, 12.9329406]]]}}, {"type": "Feature", "id": 86, "properties": {"id": 86, "name": "Chinnappanahalli Lake"}, "geometry": {"type": "Polygon", "coordinates": [[[77.7081435, 12.9652064], [77.7080514, 12.9651427], [77.7071595, 12.965245], [77.7061049, 12.9651242], [77.7063256, 12.9656201], [77.7064778, 12.966314], [77.7071565, 12.9663904], [77.7074092, 12.9665885], [77.7076204, 12.9665649], [77.7077671, 12.9659777], [77.7081435, 12.9652064]]]}}, {"type": "Feature", "id": 87, "properties": {"id": 87, "name": ""}, "geometry": {"type": "Polygon", "coordinates": [[[77.6238541, 12.9785554], [77.623852, 12.9784332], [77.6266225, 12.9786261], [77.6279339, 12.9783605], [77.6301381, 12.9770734], [77.6318494, 12.9762369], [77.6325916, 12.9750927], [77.6328988, 12.9738163], [77.6338, 12.9709062], [77.6339571, 12.9709605], [77.6330208, 12.9739486], [77.6327925, 12.9750254], [77.6325886, 12.9754314], [77.6318937, 12.9763529], [77.6302212, 12.977184], [77.6286167, 12.9781392], [77.6280004, 12.9784252], [77.6263958, 12.9787398], [77.6238541, 12.9785554]]]}}, {"type": "Feature", "id": 88, "properties": {"id": 88, "name": "Basapura Lake"}, "geometry": {"type": "Polygon", "coordinates": [[[77.6487896, 12.8702625], [77.6495127, 12.8701156], [77.6498464, 12.8702547], [77.6506497, 12.8702782], [77.6507771, 12.8699866], [77.6505136, 12.8696075], [77.6504868, 12.8694233], [77.6496077, 12.8688204], [77.6493394, 12.8684282], [77.6492757, 12.8684963], [77.649271, 12.8690898], [77.6491651, 12.8696284], [77.6487896, 12.8702625]]]}}, {"type": "Feature", "id": 89, "properties": {"id": 89, "name": "Ambalipura Lower Lake"}, "geometry": {"type": "Polygon", "coordinates": [[[77.664439, 12.9168828], [77.6645543, 12.9180539], [77.6647341, 12.9179965], [77.6648681, 12.9178216], [77.6656336, 12.9177303], [77.6656948, 12.917644], [77.6650331, 12.9160148], [77.6642296, 12.9161205], [77.664439, 12.9168828]]]}}, {"type": "Feature", "id": 90, "properties": {"id": 90, "name": "K100"}, "geometry": {"type": "Polygon", "coordinates": [[[77.6285068, 12.9384408], [77.628638, 12.9384769], [77.6285362, 12.9388321], [77.6284343, 12.9389811], [77.6279166, 12.9393], [77.6274768, 12.9402568], [77.6270288, 12.9408031], [77.6269242, 12.9414645], [77.6262617, 12.9417494], [77.6262134, 12.9418383], [77.626074, 12.9444315], [77.6254168, 12.9452313], [77.6240462, 12.9459685], [77.6239711, 12.9460888], [77.6240355, 12.9467083], [77.6237999, 12.9473333], [77.6230458, 12.9479813], [77.6225388, 12.9486766], [77.6219434, 12.9493118], [77.621474, 12.9495471], [77.6215523, 12.9499967], [77.6217726, 12.9502766], [77.6220721, 12.950462], [77.6220748, 12.9507652], [77.6219594, 12.951071], [77.6218977, 12.9510371], [77.6220024, 12.950543], [77.6217073, 12.9503496], [77.6214847, 12.9500594], [77.6213828, 12.9495], [77.6218656, 12.9492674], [77.6228204, 12.9480597], [77.6236845, 12.9473284], [77.6239413, 12.9465693], [77.6238789, 12.946292], [77.6239773, 12.9458801], [77.625382, 12.9451189], [77.6259973, 12.9443478], [77.6259622, 12.9431476], [77.6260339, 12.9417227], [77.626884, 12.9413416], [77.6269511, 12.9407796], [77.6275733, 12.9398804], [77.6277906, 12.9392504], [77.6283404, 12.9388661], [77.6285068, 12.9384408]]]}}, {"type": "Feature", "id": 91, "properties": {"id": 91, "name": "Hagondahalli Lake"}, "geometry": {"type": "Polygon", "coordinates": [[[77.7446356, 12.9004854], [77.7457488, 12.9004096], [77.7465078, 12.9006371], [77.746709, 12.9002684], [77.74643, 12.8999808], [77.746371, 12.8996815], [77.7459792, 12.8995481], [77.7457171, 12.899272], [77.7453639, 12.8993115], [77.7450943, 12.8995128], [77.7445981, 12.9001795], [77.7446356, 12.9004854]]]}}, {"type": "Feature", "id": 92, "properties": {"id": 92, "name": "Carmelaram Lake"}, "geometry": {"type": "Polygon", "coordinates": [[[77.7111911, 12.9187568], [77.7115108, 12.917116], [77.7093431, 12.9169903], [77.7097455, 12.9172491], [77.7111911, 12.9187568]]]}}, {"type": "Feature", "id": 93, "properties": {"id": 93, "name": "Singasandra Lake"}, "geometry": {"type": "Polygon", "coordinates": [[[77.6446468, 12.8821679], [77.645015, 12.8815571], [77.6455917, 12.8812908], [77.6461593, 12.8818573], [77.6459257, 12.8823329], [77.645813, 12.8834081], [77.6456735, 12.883531], [77.6455692, 12.8835005], [77.6455195, 12.8829395], [77.6446468, 12.8821679]]]}}, {"type": "Feature", "id": 94, "properties": {"id": 94, "name": ""}, "geometry": {"type": "Polygon", "coordinates": [[[77.7624521, 12.9206384], [77.7624521, 12.9203521], [77.7634327, 12.9191746], [77.7635701, 12.9196133], [77.7638733, 12.9200104], [77.7644797, 12.9203013], [77.7648303, 12.9203614], [77.7651619, 12.9202598], [77.7655409, 12.9203291], [77.7658489, 12.9205461], [77.765702, 12.9206846], [77.7649061, 12.9205138], [77.7635085, 12.9204353], [77.7624521, 12.9206384]]]}}, {"type": "Feature", "id": 95, "properties": {"id": 95, "name": ""}, "geometry": {"type": "Polygon", "coordinates": [[[77.6128494, 12.98271], [77.6149875, 12.9821096], [77.6154193, 12.981716], [77.6157294, 12.9815433], [77.6161598, 12.980936], [77.617755, 12.9802048], [77.6185581, 12.9790549], [77.6200815, 12.9761054], [77.6202174, 12.9761249], [77.6201494, 12.9772081], [77.6199495, 12.977173], [77.6200055, 12.9765652], [77.6191578, 12.9782484], [77.6179761, 12.9802942], [77.6162357, 12.981059], [77.6157752, 12.9816303], [77.6154703, 12.9817885], [77.6149875, 12.9822498], [77.6129151, 12.9827805], [77.6128494, 12.98271]]]}}, {"type": "Feature", "id": 96, "properties": {"id": 96, "name": ""}, "geometry": {"type": "Polygon", "coordinates": [[[77.6430139, 12.9584819], [77.6428185, 12.9592029], [77.6423287, 12.9604122], [77.6423198, 12.9607874], [77.6421792, 12.9612542], [77.642052, 12.961388], [77.6418084, 12.9614748], [77.6417455, 12.961605], [77.6404237, 12.9615771], [77.6392473, 12.9618804], [77.6387197, 12.9623232], [77.6380258, 12.9631306], [77.6380875, 12.9632414], [77.6392779, 12.9619746], [77.6406585, 12.9616454], [77.6415219, 12.961851], [77.6421128, 12.9617783], [77.6423044, 12.9615496], [77.6426906, 12.9606607], [77.6426585, 12.9603752], [77.6431343, 12.958514], [77.6438128, 12.9580651], [77.6437255, 12.9579287], [77.643137, 12.9583189], [77.6430139, 12.9584819]]]}}, {"type": "Feature", "id": 97, "properties": {"id": 97, "name": "ITI Layout Lake"}, "geometry": {"type": "Polygon", "coordinates": [[[77.6390891, 12.9013516], [77.6387858, 12.902961], [77.6393775, 12.9029661], [77.6398852, 12.9028296], [77.6400413, 12.9021852], [77.6400136, 12.9018879], [77.6398672, 12.9017693], [77.639819, 12.9019269], [77.639771, 12.9019569], [77.6396915, 12.9018436], [77.6396355, 12.9019308], [77.6396172, 12.9016799], [77.6394402, 12.9017366], [77.6390891, 12.9013516]]]}}, {"type": "Feature", "id": 98, "properties": {"id": 98, "name": ""}, "geometry": {"type": "Polygon", "coordinates": [[[77.6431393, 12.9288705], [77.6434029, 12.9286578], [77.6440415, 12.9286864], [77.6445899, 12.9285765], [77.6448359, 12.9286996], [77.6452195, 12.9292253], [77.6453888, 12.9292737], [77.6465442, 12.9285391], [77.6469166, 12.9285391], [77.6477583, 12.9281696], [77.6483, 12.9278242], [77.6487378, 12.927767], [77.6498909, 12.9278484], [77.6503987, 12.9277604], [77.6507936, 12.9277692], [77.6510238, 12.9278924], [77.651432, 12.9283633], [77.6514819, 12.9288954], [77.6516354, 12.9290823], [77.6521431, 12.9293859], [77.65259, 12.9295442], [77.652942, 12.9296124], [77.6534723, 12.9294189], [77.6542802, 12.9294299], [77.654524, 12.9293485], [77.654867, 12.9290274], [77.6550227, 12.9289988], [77.655043, 12.9289108], [77.6548555, 12.9289326], [77.6545105, 12.9292472], [77.6542558, 12.9293593], [77.6534294, 12.9293253], [77.6529375, 12.9295113], [77.6526577, 12.9294739], [77.6516255, 12.9289956], [77.6515212, 12.9288076], [77.6514978, 12.9283185], [77.650996, 12.9277723], [77.6508083, 12.9277049], [77.6498725, 12.9277837], [77.6487412, 12.9277037], [77.6482264, 12.9277837], [77.647576, 12.9281826], [77.6470338, 12.9284074], [77.646532, 12.9283896], [77.6453564, 12.9291505], [77.644852, 12.928584], [77.6445666, 12.9284506], [77.6441469, 12.9285789], [77.6434105, 12.9285497], [77.6432528, 12.9286107], [77.6429496, 12.9288886], [77.6427871, 12.9289343], [77.6428272, 12.9291438], [77.6430752, 12.9291014], [77.6431393, 12.9288705]]]}}, {"type": "Feature", "id": 99, "properties": {"id": 99, "name": ""}, "geometry": {"type": "Polygon", "coordinates": [[[77.6897152, 12.9555673], [77.6895543, 12.955527], [77.6888052, 12.9578477], [77.6886887, 12.9602713], [77.6889448, 12.9610179], [77.6892024, 12.9610249], [77.6889342, 12.9601623], [77.6890629, 12.9575798], [77.6897152, 12.9555673]]]}}, {"type": "Feature", "id": 100, "properties": {"id": 100, "name": ""}, "geometry": {"type": "Polygon", "coordinates": [[[77.6804987, 12.9332509], [77.6810715, 12.9330265], [77.6812, 12.9328849], [77.6813107, 12.9320673], [77.6812591, 12.9316523], [77.6807259, 12.9308343], [77.6810525, 12.930276], [77.6809627, 12.9302642], [77.6806072, 12.9308706], [77.6786478, 12.9305537], [77.6786098, 12.9306859], [77.6795831, 12.9310012], [77.6806301, 12.9311909], [77.6810456, 12.9315873], [77.6811585, 12.9319131], [77.6810164, 12.9328169], [77.6803458, 12.933149], [77.6798737, 12.9338182], [77.6798791, 12.9342626], [77.6799984, 12.9342417], [77.6802559, 12.9334953], [77.6804987, 12.9332509]]]}}, {"type": "Feature", "id": 101, "properties": {"id": 101, "name": ""}, "geometry": {"type": "Polygon", "coordinates": [[[77.6338606, 12.9707396], [77.6340177, 12.9707939], [77.6352011, 12.966422], [77.6357817, 12.9657028], [77.6380875, 12.9632414], [77.6380258, 12.9631306], [77.6350427, 12.9664205], [77.6338606, 12.9707396]]]}}, {"type": "Feature", "id": 102, "properties": {"id": 102, "name": ""}, "geometry": {"type": "Polygon", "coordinates": [[[77.6233342, 12.9696203], [77.6235983, 12.9692297], [77.6233515, 12.9689239], [77.6234347, 12.9686442], [77.623106, 12.9684566], [77.6225146, 12.9685269], [77.6219653, 12.9692379], [77.6225403, 12.9695641], [77.6228751, 12.9694135], [77.6233342, 12.9696203]]]}}, {"type": "Feature", "id": 103, "properties": {"id": 103, "name": ""}, "geometry": {"type": "Polygon", "coordinates": [[[77.5687551, 12.9862632], [77.5689202, 12.9862034], [77.5688977, 12.9861245], [77.5687, 12.9860648], [77.5685872, 12.9852506], [77.5683021, 12.9851262], [77.5666509, 12.9852102], [77.5653843, 12.9848532], [77.563506, 12.9841747], [77.5633468, 12.9838646], [77.5631876, 12.9831118], [77.562997, 12.9826821], [77.5627632, 12.9823897], [77.5626207, 12.982401], [77.5630418, 12.9830439], [77.5633153, 12.9841343], [77.5635225, 12.9843444], [77.5666326, 12.985291], [77.5683651, 12.9852862], [77.568511, 12.9854994], [77.5686767, 12.9863798], [77.5688011, 12.986572], [77.5697129, 12.9871019], [77.5697311, 12.985976], [77.5698803, 12.9858435], [77.5698903, 12.9858984], [77.5702799, 12.9858015], [77.5702583, 12.9856626], [77.5699268, 12.9856836], [77.5695521, 12.9858467], [77.5696632, 12.9859517], [77.5696896, 12.9863396], [77.5697059, 12.9869744], [77.5696295, 12.9870107], [77.5689053, 12.9865716], [77.5687551, 12.9862632]]]}}, {"type": "Feature", "id": 104, "properties": {"id": 104, "name": ""}, "geometry": {"type": "Polygon", "coordinates": [[[77.6398364, 12.9232784], [77.63989, 12.923249], [77.6389378, 12.9212751], [77.6385918, 12.9198843], [77.6384121, 12.9162295], [77.6387608, 12.9162949], [77.6387876, 12.9164674], [77.6385891, 12.9167393], [77.6385462, 12.916938], [77.638742, 12.9199079], [77.6391551, 12.9213928], [77.6401609, 12.9234398], [77.6400349, 12.9235522], [77.6399491, 12.9235152], [77.6398364, 12.9232784]]]}}, {"type": "Feature", "id": 105, "properties": {"id": 105, "name": ""}, "geometry": {"type": "Polygon", "coordinates": [[[77.6694265, 12.8791841], [77.6684609, 12.87909], [77.6681659, 12.877984], [77.6686111, 12.877848], [77.6691851, 12.8779343], [77.6692307, 12.8781408], [77.6690797, 12.8784541], [77.6691408, 12.8786513], [77.6694412, 12.8787256], [77.6694907, 12.8791108], [77.6694265, 12.8791841]]]}}, {"type": "Feature", "id": 106, "properties": {"id": 106, "name": "K100"}, "geometry": {"type": "Polygon", "coordinates": [[[77.6032547, 12.9502621], [77.6033188, 12.9504992], [77.6004803, 12.9497405], [77.6002952, 12.9497856], [77.5954478, 12.9535736], [77.5944955, 12.9542945], [77.5944445, 12.9542345], [77.6002587, 12.9496923], [77.6006181, 12.9496792], [77.6023025, 12.9501157], [77.6032547, 12.9502621]]]}}, {"type": "Feature", "id": 107, "properties": {"id": 107, "name": ""}, "geometry": {"type": "Polygon", "coordinates": [[[77.665415, 12.927965], [77.6658145, 12.9302305], [77.6659442, 12.9308749], [77.6660097, 12.9309233], [77.6704249, 12.9309442], [77.6730337, 12.9308387], [77.6732909, 12.9310883], [77.6739161, 12.9312181], [77.6756391, 12.9320275], [77.6761085, 12.9320671], [77.6762811, 12.9320451], [77.6765914, 12.9317866], [77.6767629, 12.9311477], [77.676975, 12.9310421], [77.6768329, 12.9310355], [77.67672, 12.9311323], [77.6765485, 12.9316975], [77.6763578, 12.9317778], [77.6762912, 12.9319307], [77.6758298, 12.9319692], [77.6742388, 12.9312719], [77.6733101, 12.931019], [77.6730472, 12.9307793], [77.6710083, 12.9308595], [77.6660153, 12.9308716], [77.6654647, 12.9279232], [77.665415, 12.927965]]]}}, {"type": "Feature", "id": 108, "properties": {"id": 108, "name": "Goshala Lake"}, "geometry": {"type": "MultiPolygon", "coordinates": [[[[77.6974195, 12.9874656], [77.6984024, 12.9870943], [77.6984292, 12.9866604], [77.6977466, 12.9861756], [77.6977412, 12.9859299], [77.6976366, 12.9858672], [77.6974899, 12.9859333], [77.6974195, 12.9874656]]], [[[77.6984376, 12.9870489], [77.6988803, 12.9868923], [77.6988798, 12.9867859], [77.6984587, 12.9866813], [77.6984376, 12.9870489]]]]}}, {"type": "Feature", "id": 109, "properties": {"id": 109, "name": "B Narayanapura Lake"}, "geometry": {"type": "Polygon", "coordinates": [[[77.6825701, 12.9973358], [77.6823973, 12.9968845], [77.6823881, 12.9959757], [77.6826715, 12.995872], [77.6828082, 12.995715], [77.6829337, 12.9952596], [77.6830273, 12.9954521], [77.6830688, 12.9958866], [77.6833188, 12.99625], [77.6826561, 12.9973126], [77.6825701, 12.9973358]]]}}, {"type": "Feature", "id": 110, "properties": {"id": 110, "name": "Akshaynagar Lake"}, "geometry": {"type": "Polygon", "coordinates": [[[77.6133215, 12.8726512], [77.613687, 12.8720406], [77.6142428, 12.8719805], [77.6150126, 12.8722289], [77.6149375, 12.8715778], [77.6146802, 12.8713094], [77.6143776, 12.8712569], [77.6137829, 12.8714118], [77.6134573, 12.8720896], [77.6133215, 12.8726512]]]}}, {"type": "Feature", "id": 111, "properties": {"id": 111, "name": ""}, "geometry": {"type": "Polygon", "coordinates": [[[77.6368833, 12.9869584], [77.6371139, 12.9879202], [77.6373017, 12.9878836], [77.6384067, 12.9871832], [77.638278, 12.9868643], [77.637983, 12.9868486], [77.6370764, 12.987042], [77.6368833, 12.9869584]]]}}, {"type": "Feature", "id": 112, "properties": {"id": 112, "name": "Garudacharpalya Lake"}, "geometry": {"type": "Polygon", "coordinates": [[[77.696454, 12.9915003], [77.6964283, 12.9915909], [77.6962191, 12.991638], [77.6955673, 12.9907964], [77.6952568, 12.9907677], [77.6949484, 12.9905815], [77.6949812, 12.990486], [77.6963968, 12.9902234], [77.6964028, 12.9908088], [77.6962754, 12.9909232], [77.6962331, 12.9911106], [77.696454, 12.9915003]]]}}, {"type": "Feature", "id": 113, "properties": {"id": 113, "name": ""}, "geometry": {"type": "Polygon", "coordinates": [[[77.6477074, 12.9541893], [77.6475521, 12.9541182], [77.6479651, 12.953274], [77.6503486, 12.9517545], [77.6509885, 12.9517312], [77.6519913, 12.9520048], [77.6524799, 12.9518564], [77.6530386, 12.9514606], [77.6536024, 12.9505727], [77.6536846, 12.950473], [77.6537954, 12.950473], [77.6530588, 12.9516078], [77.6524765, 12.9520101], [77.6519933, 12.9521458], [77.6509077, 12.9518433], [77.6504228, 12.9518482], [77.6483053, 12.9531727], [77.6480804, 12.9534049], [77.6477074, 12.9541893]]]}}, {"type": "Feature", "id": 114, "properties": {"id": 114, "name": ""}, "geometry": {"type": "Polygon", "coordinates": [[[77.6175283, 12.9548648], [77.617402, 12.9556833], [77.6167355, 12.9572726], [77.616419, 12.9609033], [77.6162313, 12.9618783], [77.6154749, 12.9635381], [77.6144918, 12.9647618], [77.6144563, 12.964945], [77.6155513, 12.9635041], [77.6163117, 12.9618678], [77.6165156, 12.9609399], [77.6168428, 12.9572621], [77.617457, 12.9558767], [77.6176347, 12.9548699], [77.6175283, 12.9548648]]]}}, {"type": "Feature", "id": 115, "properties": {"id": 115, "name": ""}, "geometry": {"type": "Polygon", "coordinates": [[[77.6887088, 12.9670917], [77.6891668, 12.9621035], [77.6892066, 12.9612238], [77.6890626, 12.961172], [77.6886289, 12.9664482], [77.6886289, 12.9669677], [77.6887088, 12.9670917]]]}}]}